ID,name,prefix,alternative_name,alternative_name_prefix,altitude,secondary_altitude,secondary_altitude_name,latitude,longitude,nom_id,country_a,country_b
1,El Pangal,Morro,,,2575,,,-33.765035909,-70.332291510,El Ingenio_1,,
2,San Pedro Nolasco,Cerro,,,3177,,,-33.809202302,-70.322292194,El Ingenio_2,,
3,Euskadi,Cerro,,,3615,,,-33.858367981,-70.348405905,El Ingenio_3,,
4,La Carlota,Cerro,,,3563,,,-33.859201928,-70.314793158,El Ingenio_4,,
5,P2856,Innominado,,,2856,,,-33.861976713,-70.473967753,El Ingenio_5,,
6,Los Cristales,Cerro,,,3057,,,-33.865032842,-70.441744017,El Ingenio_6,,
7,Santa Rita,Cerro,,,3533,,,-33.872257999,-70.280069572,El Ingenio_7,,
8,P3558,Innominado,,,3558,,,-33.907256093,-70.363130161,El Ingenio_8,,
9,P3760,Innominado,,,3760,,,-33.914757128,-70.303405192,El Ingenio_9,,
10,de la Punta,Cerro,,,3702,,,-33.953922556,-70.348408467,El Ingenio_10,,
11,Alto Rodeíllo,Cerro,,,2778,,,-33.951975722,-70.477025873,El Ingenio_11,,
12,P3669,Innominado,,,3669,,,-33.970034562,-70.291461645,El Ingenio_12,,
13,P3935,Innominado,,,3935,,,-33.999478797,-70.286184395,El Ingenio_13,,
14,El Horno,Cerro,,,3715,,,-35.019188813,-70.365383157,Lagunas de Teno_1,,
15,Alto de Cayetano,Cerro,,,2878,,,-35.013350230,-70.641785670,Lagunas de Teno_2,,
16,P3478,Innominado,,,3478,,,-35.040021147,-70.406219120,Lagunas de Teno_4,,
17,P3621,Innominado,,,3621,,,-35.056132682,-70.375106912,Lagunas de Teno_5,,
18,Santa Elena,Torre,,,3845,,,-35.082521311,-70.373996496,Lagunas de Teno_6,,
19,Alto de las Lajas,Cerro,,,2866,,,-35.091959495,-70.693179366,Lagunas de Teno_8,,
20,Cordon Caletas,Cerro,,,3257,,,-35.143350373,-70.561507608,Lagunas de Teno_11,,
21,Villagra,Cerro,,,3265,,,-35.201684811,-70.471504778,Lagunas de Teno_12,,
22,El Planchón,Morro,,,3977,,,-35.219460455,-70.572065869,Lagunas de Teno_15,,
23,Planchón,Volcán,,,3920,,,-35.222793819,-70.568454674,Lagunas de Teno_16,,
24,Sierra de San Hilario (Sector Suroeste),Cerro,,,3869,,,-34.768635496,-70.388155007,Termas del Flaco_1,,
25,Sierra de San Hilario (Sector Noreste),Cerro,,,3840,,,-34.756969257,-70.372042768,Termas del Flaco_2,,
26,P4670,Innominado,,,4670,,,-34.769470251,-70.312873506,Termas del Flaco_3,,
27,Punta Rosita,Cerro,,,4136,,,-34.772802842,-70.349819882,Termas del Flaco_4,,
28,Alto del Azufre,Cerro,,,4691,,,-34.771970045,-70.322318487,Termas del Flaco_5,,
29,Puntilla I del Azufre,Cerro,,,4508,,,-34.781136544,-70.326207827,Termas del Flaco_6,,
30,Puntilla II del Azufre,Cerro,,,4516,,,-34.786969818,-70.325930197,Termas del Flaco_7,,
31,Puntilla III del Azufre,Cerro,,,4508,,,-34.788636465,-70.326208037,Termas del Flaco_8,,
32,Puntilla IV del Azufre,Cerro,,,4538,,,-34.790303112,-70.325930290,Termas del Flaco_9,,
33,Puntilla V del Azufre,Cerro,,,4463,,,-34.795303054,-70.326208224,Termas del Flaco_10,,
34,Moño,Cerro,,,4699,,,-34.799193368,-70.249260040,Termas del Flaco_11,,
35,P4495,Innominado,,,4495,,,-34.805026546,-70.254538247,Termas del Flaco_12,,
36,P4455,Innominado,,,4455,,,-34.816970807,-70.257316500,Termas del Flaco_13,,
37,Tinguiririca,Volcán,,,4280,,,-34.818357893,-70.351210118,Termas del Flaco_14,,
38,Monserrat,Volcán,,,4230,,,-34.805302609,-70.343987171,Termas del Flaco_15,,
39,P4297,Innominado,,,4297,,,-34.828914998,-70.264261621,Termas del Flaco_16,,
40,Fray Carlos,Volcán,,,4012,,,-34.843079686,-70.359822351,Termas del Flaco_17,,
41,Natalia,Cerro,,,3639,,,-34.865023892,-70.360378556,Termas del Flaco_18,,
42,Alto de las Placetas,Cerro,,,3255,,,-34.854466346,-70.470105953,Termas del Flaco_19,,
43,Don Cucho,Cerro,,,3556,,,-34.883356926,-70.365657105,Termas del Flaco_20,,
44,Los Guzmanes,Cerro,,,3713,,,-34.895300623,-70.397881281,Termas del Flaco_22,,
45,P4138,Innominado,,,4138,,,-34.931968374,-70.320934019,Termas del Flaco_23,,
46,Sin Nombre,Cerro,,,4160,,,-34.941690305,-70.330657000,Termas del Flaco_24,,
47,Orejas,Cerro,,,3949,,,-34.985023157,-70.332047183,Termas del Flaco_25,,
48,De Los Suizos,Punta,,,3995,,,-34.976689996,-70.327324491,Termas del Flaco_26,,
49,Sordo Lucas,Cerro,,,,,,-34.963944444,-70.525527778,Termas del Flaco_27,,
50,Horno de la Vieja,Cerro,,,3602,,,-35.000855828,-70.357604469,Termas del Flaco_28,,
51,Alto del Padre,Cerro,,,3349,,,-34.989742908,-70.458164730,Termas del Flaco_29,,
52,Rincon de Pincheira,Cerro,,,3291,,,-34.811414750,-70.287040049,Termas del Flaco_31,,
53,Alto de las Llaretas,Cerro,,,,,,-34.870021123,-70.502330218,Termas del Flaco_32,,
54,San Antonio,Cerro,,,2713,,,-34.763909446,-70.591220544,Sierras de Bellavista_1,,
55,Los Lunes,Cerro,,,2193,,,-34.803907354,-70.677892647,Sierras de Bellavista_2,,
56,Alto las Aguilas,Cerro,,,2380,,,-34.822796586,-70.649002855,Sierras de Bellavista_3,,
57,Aguilas del Chivato,Cerro,,,2783,,,-34.845019137,-70.619835362,Sierras de Bellavista_4,,
58,El Sillon,Cerro,,,2756,,,-34.844185667,-70.627057918,Sierras de Bellavista_5,,
59,Alto de la Plaza,Cerro,,,2482,,,-34.859461210,-70.734841486,Sierras de Bellavista_6,,
60,Las Placetas,Cerro,,,2902,,,-34.865298821,-70.508719293,Sierras de Bellavista_7,,
61,P2790,Innominado,,,2790,,,-34.893074773,-70.588446269,Sierras de Bellavista_8,,
62,P3063,Innominado,,,3063,,,-34.914463807,-70.569001466,Sierras de Bellavista_9,,
63,Alto de las Mesas,Cerro,,,2524,,,-34.918905478,-70.710953096,Sierras de Bellavista_10,,
64,Pellejo,Cerro,,,2767,,,-34.927239167,-70.687618842,Sierras de Bellavista_11,,
65,P3045,Innominado,,,3045,,,-34.936408517,-70.543167460,Sierras de Bellavista_12,,
66,Alto las Mesas,Cerro,,,2638,,,-34.965017872,-70.618449802,Sierras de Bellavista_13,,
67,Sordo Lucas,Cerro,,,3399,,,-34.967797338,-70.528723189,Sierras de Bellavista_14,,
68,El Peñon,Cerro,,,2975,,,-34.993906321,-70.625117626,Sierras de Bellavista_15,,
69,Punta Lajas,Cerro,,,3521,,,-34.516414167,-70.481763749,Alto de los Arrieros_01,,
70,Tridente,Cerro,,,3547,,,-34.522802916,-70.485097432,Alto de los Arrieros_02,,
71,Alto de la Buena Vista,Cerro,,,3675,,,-34.529747282,-70.485653202,Alto de los Arrieros_03,,
72,Rosario,Cerro,,,3476,,,-34.556969145,-70.489265246,Alto de los Arrieros_04,,
73,Corona de los Punzones,Cerro,,,3519,,,-34.569191589,-70.470653551,Alto de los Arrieros_05,,
74,San Augusto,Cerro,,,3590,,,-34.589469202,-70.468153991,Alto de los Arrieros_10,,
75,Cuerno,Cerro,,,3556,,,-34.599191219,-70.473432303,Alto de los Arrieros_11,,
76,Alto de la Planchada,Cerro,,,3558,,,-34.586689850,-70.552324763,Alto de los Arrieros_12,,
77,Alto de los Cristales,Cerro,,,3810,,,-34.586690485,-70.518989778,Alto de los Arrieros_13,,
78,Torta,Cerro,,,3688,,,-34.619190753,-70.486766853,Alto de los Arrieros_14,,
79,P3578,Innominado,,,3578,,,-34.633357188,-70.491211918,Alto de los Arrieros_15,,
80,P3759,Innominado,,,3759,,,-34.651967968,-70.498157222,Alto de los Arrieros_16,,
81,Alto del Pelambre,Cerro,,,3943,,,-34.686689103,-70.535660057,Alto de los Arrieros_17,,
82,Peineta,Cerro,,,3910,,,-34.720022088,-70.535660990,Alto de los Arrieros_18,,
83,Coton,Cerro,,,4292,,,-34.514749790,-70.361757741,Alto de los Arrieros_20,,
84,Chile Japon,Cerro,,,4186,,,-34.582248742,-70.379538274,Alto de los Arrieros_21,,
85,P4060,Innominado,,,4060,,,-34.589193198,-70.374816012,Alto de los Arrieros_22,,
86,ASAVA,Cerro,,,4345,,,-34.611692876,-70.379261298,Alto de los Arrieros_23,,
87,ASAE,Cerro,,,4306,,,-34.631692549,-70.385373278,Alto de los Arrieros_24,,
88,P4716,Innominado,,,4716,,,-34.645303832,-70.368706156,Alto de los Arrieros_25,,
89,Alto de los Arrieros,Cerro,,,4990,,,-34.650303711,-70.372317585,Alto de los Arrieros_26,,
90,Portillo,Cerro,,,4961,,,-34.660581250,-70.379262657,Alto de los Arrieros_27,,
91,Torre Norte al sur del Portillo,Cerro,,,4860,,,-34.668636778,-70.376484973,Alto de los Arrieros_29,,
92,Torre Central al sur del Portillo,Cerro,,,4957,,,-34.671136709,-70.378707374,Alto de los Arrieros_30,,
93,Torre Sur al sur del Portillo,Cerro,,,4800,,,-34.672803293,-70.381763122,Alto de los Arrieros_31,,
94,Punta NUSEVA,Cerro,,,4570,,,-34.681969919,-70.378985469,Alto de los Arrieros_32,,
95,El Brujo,Cerro,,,4732,,,-34.690025330,-70.382319190,Alto de los Arrieros_33,,
96,P4697,Innominado,,,4697,,,-34.695580668,-70.390375306,Alto de los Arrieros_34,,
97,Cumbre Sur del Brujo,Cerro,,,4458,,,-34.709747183,-70.390653485,Alto de los Arrieros_35,,
98,Aguja de Roca,Cerro,,,3700,,,-34.672803964,-70.346483595,Alto de los Arrieros_36,,
99,Dr. Hernan Cruz,Cerro,,,4565,,,-34.550583411,-70.326479207,Alto de los Arrieros_38,,
100,P4131,Innominado,,,4131,,,-34.551139486,-70.298977853,Alto de los Arrieros_39,,
101,Punta Maria Angeles,Cerro,,,4470,,,-34.554750153,-70.320367908,Alto de los Arrieros_40,,
102,Sandra,Cerro,,,4198,,,-34.563083369,-70.321757088,Alto de los Arrieros_41,,
103,P4323,Innominado,,,4323,,,-34.575305598,-70.314534846,Alto de los Arrieros_42,,
104,Punta Estructura,Cerro,,,4000,,,-34.586694320,-70.317035286,Alto de los Arrieros_43,,
105,Punta Escultura,Cerro,,,4286,,,-34.598916438,-70.316202254,Alto de los Arrieros_44,,
106,Monolitos,Cerro,,,4160,,,-34.597249274,-70.343147989,Alto de los Arrieros_46,,
107,Cipres del Granitos,Cerro,,,4100,,,-34.603915816,-70.346203886,Alto de los Arrieros_47,,
108,Torreones Centrales del Granitos,Cerro,,,4150,,,-34.612526825,-70.346759703,Alto de los Arrieros_48,,
109,de la Meza,Aguja,,,4000,,,-34.603360462,-70.335647785,Alto de los Arrieros_49,,
110,del Granitos,Nevado,,,4300,,,-34.620582274,-70.347593308,Alto de los Arrieros_50,,
111,Chimenea,Punta,,,4000,,,-34.620026956,-70.335648248,Alto de los Arrieros_51,,
112,Granitos,Nevado,,,4505,,,-34.631137701,-70.348704767,Alto de los Arrieros_52,,
113,P4309,Innominado,,,4309,,,-34.621971334,-70.337870642,Alto de los Arrieros_53,,
114,Penitente,Nevado,,,4350,,,-34.634193367,-70.340926684,Alto de los Arrieros_55,,
115,Mañke,Nevado,,,4480,,,-34.638637612,-70.349260553,Alto de los Arrieros_56,,
116,Cisne,Nevado,,,4350,,,-34.644748631,-70.350649682,Alto de los Arrieros_57,,
117,P4584,Innominado,,,4584,,,-34.650859650,-70.352038811,Alto de los Arrieros_58,,
118,Corona del Diablo,Cerro,,,4589,,,-34.656415262,-70.346205345,Alto de los Arrieros_59,,
119,Palomo,Volcán,,,4860,,,-34.610861100,-70.297868341,Alto de los Arrieros_60,,
120,Agujas del Palomo,Cerro,,,4000,,,-34.603360778,-70.318980295,Alto de los Arrieros_60B,,
121,Pilar Occidental,Cerro,,,4016,,,-34.635027057,-70.322036876,Alto de los Arrieros_61,,
122,Pilar Oriental,Cerro,,,3998,,,-34.647527273,-70.303702980,Alto de los Arrieros_62,,
123,Gran Torre del Cortaderal,Cerro,,,3968,,,-34.630305604,-70.283701505,Alto de los Arrieros_63,,
124,Aguja Roja,Cerro,,,3926,,,-34.655304929,-70.305369949,Alto de los Arrieros_64,,
125,Torrecilla,Punta,,,3858,,,-34.659471418,-70.312592645,Alto de los Arrieros_65,,
126,Colmillo,Punta,,,3613,,,-34.698915405,-70.315093867,Alto de los Arrieros_67,,
127,Mesoncito,Punta,,,3946,,,-34.686415948,-70.293425769,Alto de los Arrieros_68,,
128,Cortaderal,Punta,,,3810,,,-34.676416159,-70.287869664,Alto de los Arrieros_69,,
129,Budapest,Punta,,,3931,,,-34.695860943,-70.258979873,Alto de los Arrieros_70,,
130,Hermandad,Punta,,,4139,,,-34.714471683,-70.268147509,Alto de los Arrieros_71,,
131,P4413,Innominado,,,4413,,,-34.722805030,-70.262591914,Alto de los Arrieros_76,,
132,P4565,Innominado,,,4565,,,-34.738915363,-70.295093985,Alto de los Arrieros_77,,
133,P4625,Innominado,,,4625,,,-34.749470563,-70.307594903,Alto de los Arrieros_78,,
134,P3048,Innominado,,,3048,,,-34.510579263,-70.567323392,Rio Clarillo_1,,
135,P3167,Innominado,,,3167,,,-34.513635239,-70.543711196,Rio Clarillo_2,,
136,Alto del Corazon,Cerro,,,1664,,,-34.521133458,-70.633160277,Rio Clarillo_3,,
137,Alto de las Verdolagas,Cerro,,,2068,,,-34.525022729,-70.610937064,Rio Clarillo_4,,
138,Alto de los Peñascos,Cerro,,,2935,,,-34.521134547,-70.575935221,Rio Clarillo_5,,
139,P3010,Innominado,,,3010,,,-34.531135624,-70.513710193,Rio Clarillo_6,,
140,P3031,Innominado,,,3031,,,-34.548635650,-70.502599017,Rio Clarillo_7,,
141,Alto de la Campana,Cerro,,,2430,,,-34.561132682,-70.651495639,Rio Clarillo_8,,
142,Alto del Sapo,Cerro,,,3052,,,-34.556690750,-70.521766852,Rio Clarillo_9,,
143,Alto de Monserrat,Cerro,,,3014,,,-34.579467135,-70.582326051,Rio Clarillo_10,,
144,Alto de las Yeguas,Cerro,,,3217,,,-34.588356327,-70.561491935,Rio Clarillo_11,,
145,P3404,Innominado,,,3404,,,-34.588912490,-70.529545914,Rio Clarillo_12,,
146,P3525,Innominado,,,3525,,,-34.594745308,-70.553158359,Rio Clarillo_13,,
147,Alto de la Plancha,Cerro,,,3702,,,-34.596412632,-70.517878884,Rio Clarillo_14,,
148,Alto de las Lagunas,Cerro,,,3032,,,-34.614187580,-70.655941780,Rio Clarillo_15,,
149,P3560,Innominado,,,3560,,,-34.614467880,-70.523713007,Rio Clarillo_16,,
150,Alto de los Lirios,Cerro,,,3053,,,-34.628076252,-70.659553457,Rio Clarillo_17,,
151,Alto de Barahona,Cerro,,,3537,,,-34.630022893,-70.543714434,Rio Clarillo_18,,
152,P3049,Innominado,,,3049,,,-34.637798230,-70.666776307,Rio Clarillo_19,,
153,Alto de Pellejo,Cerro,,,2663,,,-34.636966432,-70.587050109,Rio Clarillo_20,,
154,Alto de Castañeda,Cerro,,,2785,,,-34.665854643,-70.606496332,Rio Clarillo_21,,
155,P3682,Innominado,,,3682,,,-34.667245231,-70.516769684,Rio Clarillo_22,,
156,P3255,Innominado,,,3255,,,-34.673911162,-70.551771610,Rio Clarillo_23,,
157,(Sierra de los Punzones),Cerro,,,3526,,,-34.682800361,-70.530104122,Rio Clarillo_24,,
158,Alto del Pelambre,Cerro,,,3934,,,-34.698633405,-70.536771556,Rio Clarillo_25,,
159,P3648,Innominado,,,3648,,,-34.715578104,-70.513715334,Rio Clarillo_26,,
160,P3932,Innominado,,,3932,,,-34.713910873,-70.544550151,Rio Clarillo_27,,
161,Alto de las Mulas,Cerro,,,3468,,,-34.737521689,-70.546773143,Rio Clarillo_28,,
162,P2664,Innominado,,,2664,,,-34.272531002,-70.314248731,Rio Cortaderal_1,,
163,Agujereado,Cerro,,,2522,,,-34.277806944,-70.408420214,Rio Cortaderal_2,,
164,P3313,Innominado,,,3313,,,-34.284476200,-70.267302287,Rio Cortaderal_3,,
165,Manantiales,Cerro,,,3511,,,-34.291141881,-70.316193786,Rio Cortaderal_4,,
166,Mirador del Manantiales,Cerro,,,3530,,,-34.294197337,-70.319527365,Rio Cortaderal_5,,
167,Sesquicentenario,Cerro,,,3404,,,-34.296419303,-70.332305839,Rio Cortaderal_6,,
168,Alto del Retamal,Cerro,,,3353,,,-34.301141066,-70.353973713,Rio Cortaderal_7,,
169,Duende,Cerro,,,3559,,,-34.306141442,-70.331194940,Rio Cortaderal_8,,
170,Los Llanos,Cerro,,,3115,,,-34.319475846,-70.266747655,Rio Cortaderal_9,,
171,Alto del Guayacan,Cerro,,,2860,,,-34.303362037,-70.418976997,Rio Cortaderal_9B,,
172,La Guardia,Cerro,,,3305,,,-34.320030219,-70.329528567,Rio Cortaderal_10,,
173,Alto del Collay,Cerro,,,3154,,,-34.391417781,-70.360365394,Rio Cortaderal_11,,
174,P3248,Innominado,,,3248,,,-34.403639826,-70.362865854,Rio Cortaderal_12,,
175,Alto de los Bueyes,Cerro,,,3064,,,-34.405307904,-70.286750998,Rio Cortaderal_13,,
176,Escalones,Cerro,,,3329,,,-34.418637288,-70.488705841,Rio Cortaderal_14,,
177,Morro Bandera,Cerro,,,3483,,,-34.441972549,-70.373700777,Rio Cortaderal_15,,
178,P3279,Innominado,,,3279,,,-34.449192294,-70.500373932,Rio Cortaderal_16,,
179,P3468,Innominado,,,3468,,,-34.456972333,-70.376756892,Rio Cortaderal_17,,
180,Morro Urriola,Cerro,,,3162,,,-34.458083211,-70.388424172,Rio Cortaderal_18,,
181,P3760,Innominado,,,3760,,,-34.473638939,-70.370923732,Rio Cortaderal_19,,
182,Alto de los Pejerreyes,Cerro,,,3741,,,-34.482251067,-70.312309945,Rio Cortaderal_20,,
183,P3457,Innominado,,,3457,,,-34.495580942,-70.487319008,Rio Cortaderal_21,,
184,Alto Cotón Norte,Cerro,,,4086,,,-34.496694472,-70.358979334,Rio Cortaderal_22,,
185,Tinajon,Cerro,,,3189,,,-34.290307614,-70.365918449,Rio Cortaderal_23,,
186,Morro de la Torre,Cerro,,,3300,,,-34.336697531,-70.285637954,Rio Cortaderal_-,,
187,Yeguas,Cerro,,,3000,,,-34.420025905,-70.502317664,Rio Cortaderal_-,,
188,Las Lamparas,Cerro,,,2282,,,-34.353080494,-70.590375738,Lag Cauquenes_1,,
189,Blanco,Cerro,,,2232,,,-34.369468926,-70.605376932,Lag Cauquenes_2,,
190,Los Caletones,Cerro,,,2402,,,-34.400581418,-70.515095541,Lag Cauquenes_3,,
191,Sierra Nevada,Cerro,,,2089,,,-34.407800610,-70.670658989,Lag Cauquenes_4,,
192,La Bandera,Cerro,,,2284,,,-34.413357414,-70.602044639,Lag Cauquenes_5,,
193,P3008,Innominado,,,3008,,,-35.423903799,-70.514568892,Lag Cauquenes_6,,
194,P2544,Innominado,,,2544,,,-34.451690042,-70.617602030,Lag Cauquenes_7,,
195,Las Llaretas,Cerro,,,2535,,,-34.454190665,-70.583433737,Lag Cauquenes_8,,
196,Portezuelo,Cerro,,,2414,,,-34.454467513,-70.632325055,Lag Cauquenes_9,,
197,Los Pocillos,Cerro,,,2578,,,-34.465023901,-70.582878459,Lag Cauquenes_10,,
198,Las Pizarras,Cerro,,,3390,,,-34.473913794,-70.525098062,Lag Cauquenes_11,,
199,Dr. Augusto Figueroa,Cerro,,,3442,,,-34.494191217,-70.532043408,Lag Cauquenes_12,,
200,Altos del Cepillo,Cerro,,,3125,,,-34.500579464,-70.562322866,Lag Cauquenes_13,,
201,Gorro,Cerro,,,4520,,,-34.032264556,-69.838663059,Vn Maipo_1,,
202,P4715,Innominado,,,4715,,,-34.051154087,-69.793661321,Vn Maipo_2,,
203,P4417,Innominado,,,4417,,,-34.052541231,-69.887277131,Vn Maipo_3,,
204,P4802,Innominado,,,4802,,,-34.057262352,-69.943946748,Vn Maipo_4,,
205,Amarillo,Cerro,,,4900,,,-34.070319824,-69.833108239,Vn Maipo_5,,
206,P4632,Innominado,,,4632,,,-34.080872794,-69.967004077,Vn Maipo_6,,
207,Yeseras,Cerro,,,3865,,,-34.074485041,-69.909223251,Vn Maipo_7,,
208,de Argüelles,Nevado,,,4819,,,-34.073373288,-69.944502757,Vn Maipo_8,,
209,P4292,Innominado,,,4292,,,-34.093373384,-69.928391381,Vn Maipo_9,,
210,de Alvarado,Cerro,,,4361,,,-34.103652260,-69.863666213,Vn Maipo_10,,
211,Maipo,Volcán,,,5264,,,-34.163374405,-69.835055278,Vn Maipo_13,,
212,Tortolas,Cerro,,,4016,,,-34.175039950,-69.889224953,Vn Maipo_14,,
213,P4073,Innominado,,,4073,,,-34.211427803,-69.925061060,Vn Maipo_15,,
214,Cruz de Piedra,Cerro,,,4134,,,-34.228372271,-69.914227637,Vn Maipo_16,,
215,Borbollon,Cerro,,,4197,,,-34.249204327,-69.971175488,Vn Maipo_18,,
216,Pico de Rio Bayo,Cerro,,,4921,,,-34.284205331,-69.898117231,Vn Maipo_19,,
217,P4395,Innominado,,,4395,,,-34.294481290,-69.990066546,Vn Maipo_21,,
218,Listado,Cerro,,,4521,,,-34.300316654,-69.877838885,Vn Maipo_22,,
219,Lomita Blanca,Cerro,,,4282,,,-34.031423944,-70.231182532,Cerro Catedral_1,,
220,Pistacho,Cerro,,,4279,,,-34.031701815,-70.225626704,Cerro Catedral_1B,,
221,Azufre,Cerro,,,4396,,,-34.030035379,-70.214514999,Cerro Catedral_2,,
222,P4389,Innominado,,,4389,,,-34.040590250,-70.245072356,Cerro Catedral_3,,
223,P4091,Innominado,,,4091,,,-34.041979774,-70.210348454,Cerro Catedral_3B,,
224,Mirador del Extravio,Cerro,,,4394,,,-34.045034628,-70.246461435,Cerro Catedral_4,,
225,Cabeza de Novillo,Cerro,,,4482,,,-34.046702696,-70.170068804,Cerro Catedral_5,,
226,Manantial Redondo,Cerro,,,4172,,,-34.041426769,-70.073952784,Cerro Catedral_6,,
227,Azul,Cerro,,,4423,,,-34.056423375,-70.247850701,Cerro Catedral_7,,
228,Alfalfalito,Cerro,,,3532,,,-34.074758574,-70.137567947,Cerro Catedral_8,,
229,Plomo,Cerro,,,3738,,,-34.070871037,-70.067008780,Cerro Catedral_9,,
230,Amarillo,Cerro,,,4098,,,-34.072535771,-70.170069499,Cerro Catedral_10,,
231,P4343,Innominado,,,4343,,,-34.097813379,-70.164792139,Cerro Catedral_11,,
232,Potrerillo Alto,Cerro,,,3668,,,-34.090867776,-70.230906340,Cerro Catedral_12,,
233,Del Valle,Cerro,,,4414,,,-34.120035811,-70.141736034,Cerro Catedral_13,,
234,P4299,Innominado,,,4299,,,-34.106702846,-70.128957270,Cerro Catedral_14,,
235,Gendarme,Cerro,,,4445,,,-34.138368190,-70.182571895,Cerro Catedral_15,,
236,Champagnat Nor-Este,Cerro,,,4027,,,-34.136423323,-70.206461918,Cerro Catedral_16,,
237,Alto del Potrerillo,Cerro,,,3820,,,-34.151145121,-70.220907473,Cerro Catedral_17,,
238,San Joaquín,Cerro,,,3852,,,-34.152537663,-70.024508864,Cerro Catedral_18,,
239,Champagnat Sur,Cerro,,,3980,,,-34.140034375,-70.207573181,Cerro Catedral_19,,
240,de Flores,Nevado,,,4883,,,-34.139479620,-70.164793263,Cerro Catedral_20,,
241,de Flores,Torre,,,4890,,,-34.159479388,-70.166182762,Cerro Catedral_21,,
242,Ventisquero,Punta,,,4762,,,-34.161701819,-70.153682202,Cerro Catedral_22,,
243,del Rio Blanco,Cerro,,,3984,,,-34.164481240,-70.064233382,Cerro Catedral_23,,
244,Punta Gualtatas de Flores,Cerro,,,3638,,,-34.155311806,-70.217296296,Cerro Catedral_24,,
245,P4681,Innominado,,,4681,,,-34.166422400,-70.239242126,Cerro Catedral_25,,
246,P4451,Innominado,,,4451,,,-34.172257400,-70.146737692,Cerro Catedral_26,,
247,P4340,Innominado,,,4340,,,-34.179203122,-70.074234277,Cerro Catedral_27,,
248,Puntilla I de Flores,Cerro,,,4429,,,-34.184478969,-70.174794976,Cerro Catedral_28,,
249,P4502,Innominado,,,4502,,,-34.180590384,-70.160627498,Cerro Catedral_29,,
250,Puntilla II de Flores,Cerro,,,4329,,,-34.189200948,-70.185073395,Cerro Catedral_30,,
251,Puntilla III de Flores,Cerro,,,4217,,,-34.195034124,-70.190629379,Cerro Catedral_31,,
252,Puntilla IV de Flores,Cerro,,,4077,,,-34.198922813,-70.199241022,Cerro Catedral_32,,
253,Serrucho,Cerro,,,4765,,,-34.197258435,-70.077568270,Cerro Catedral_33,,
254,Torre de Pangal,Cerro,,,4508,,,-34.200867851,-70.166183883,Cerro Catedral_34,,
255,Puntilla Baja de Flores,Cerro,,,3467,,,-34.207255745,-70.215908745,Cerro Catedral_36,,
256,Diablo,Cerro,,,4202,,,-34.207535325,-70.119515074,Cerro Catedral_37,,
257,Federico,Cerro,,,3847,,,-34.222814184,-70.052845512,Cerro Catedral_38,,
258,Catedral del Barroso,Cerro,,,4668,,,-34.222814184,-70.052845512,Cerro Catedral_39,,
259,Circo,Cerro,,,4589,,,-34.242814046,-70.049234753,Cerro Catedral_40,,
260,P4343,Innominado,,,4343,,,,,Cerro Catedral_-,,
261,P4229,Cerro,,,4299,,,,,Cerro Catedral_-,,
262,Cruz del Muerto,Cerro,,,3201,,,-34.045865390,-70.383412674,Sewell_1,,
263,Extravio,Cerro,,,3596,,,-34.049755035,-70.340910677,Sewell_2,,
264,Vizcachas,Cerro,,,3620,,,-34.056699886,-70.315076256,Sewell_3,,
265,Penitentes,Cerro,,,4197,,,-34.070589624,-70.262018444,Sewell_4,,
266,P3820,Innominado,,,3820,,,-34.075310949,-70.307298594,Sewell_5,,
267,Los Patos,Cerro,,,2242,,,-34.070863849,-70.451750057,Sewell_6,,
268,P3912,Innominado,,,3912,,,-34.094477717,-70.291464998,Sewell_7,,
269,Potrerillo Vargas,Cerro,,,3510,,,-34.112255672,-70.272297859,Sewell_8,,
270,Lomas Bayas,Cerro,,,3363,,,-34.113642779,-70.366747013,Sewell_9,,
271,P3772,Innominado,,,3772,,,-34.106421133,-70.340078838,Sewell_10,,
272,Matancilla,Cerro,,,3728,,,-34.130587730,-70.330078997,Sewell_11,,
273,Durazno,Cerro,,,2810,,,-34.133363631,-70.428695062,Sewell_12,,
274,Morro La Piedra,Cerro,,,3170,,,-34.145308791,-70.383693160,Sewell_13,,
275,Valdenegro,Cerro,,,3567,,,-34.150587814,-70.314523209,Sewell_14,,
276,Gualtatas de Río Blanco,Cerro,,,3156,,,-34.152532504,-70.300633683,Sewell_15,,
277,Cuchilla,Cerro,,,3257,,,-34.157254160,-70.328135174,Sewell_16,,
278,Niebla,Cerro,,,2362,,,-34.207530368,-70.383972646,Sewell_17,,
279,Aguja de Caracoles,Cerro,,,2160,,,-34.230585761,-70.379528604,Sewell_18,,
280,Socavones,Cerro,,,2760,,,-34.237808460,-70.350082902,Sewell_19,,
281,San Jose Norte,Cerro,Plantat/Espíritu Santo,Volcán,5740,,,-33.768099359,-69.903103696,Vn San Jose_1,,
282,P4157,Innominado,,,4157,,,-33.754209065,-69.986996378,Vn San Jose_2,,
283,Camanchaca,Punta,,,4007,,,-33.762638889,-69.990277778,Vn San Jose_3,,
284,P5612,Innominado,La Engorda,Volcán,5612,,,-33.758099220,-69.916159640,Vn San Jose_4,,
285,Equivocados,Punta,,,4139,,,-33.754888889,-69.986611100,Vn San Jose_5,,
286,Marisemberg,Cerro,,,4120,,,-33.753166667,-69.857350242,Vn San Jose_6,,
287,Torreones,Punta,,,3602,,,-33.777264198,-69.997553070,Vn San Jose_7,,
288,San José,Volcán,,,5856,,,-33.788527778,-69.896027778,Vn San Jose_8,,
289,San Josecito,Punta,,,3456,,,-33.801986900,-69.957829535,Vn San Jose_11,,
290,Manutara,Cerro,Manu Tara,Cerro,4529,,,-33.831361111,-69.897500000,Vn San Jose_12,,
291,Panamericano,Cerro,,,4493,,,-33.847916667,-69.898194444,Vn San Jose_13,,
292,Andrade,Cerro,,,4062,,,-33.839361111,-69.943861111,Vn San Jose_14,,
293,Amarillo,Cerro,,,4221,,,-33.877000000,-69.899694444,Vn San Jose_15,,
294,Colina Norte,Pico,,,4296,,,-33.881277778,-69.867027778,Vn San Jose_16,,
295,P4448,Innominado,,,4448,,,-33.884765700,-69.857271174,Vn San Jose_17,,
296,Colina Oriente,Pico,,,4490,,,-33.891432328,-69.855882391,Vn San Jose_18,,
297,Colina Sur,Pico,,,4620,,,-33.898583333,-69.862666667,Vn San Jose_19,,
298,Portillo,Punta,,,4181,,,-33.914111111,-69.875805556,Vn San Jose_20,,
299,Puntiagudo,Cerro,,,4126,,,-33.905166667,-69.963472222,Vn San Jose_21,,
300,Negro,Morro,,,4276,,,-33.916305556,-69.961638889,Vn San Jose_22,,
301,P4260,Innominado,,,4260,,,-33.941986276,-69.915053345,Vn San Jose_23,,
302,P3985,Innominado,,,3985,,,-33.940040402,-69.993668308,Vn San Jose_24,,
303,Chancaca,Cerro,,,4059,,,-33.950000000,-69.991666667,Vn San Jose_25,,
304,Manchado,Cerro,,,5385,,,-33.963194444,-69.853500000,Vn San Jose_26,,
305,Castillo,Cerro,,,5468,,,-33.976944444,-69.888194444,Vn San Jose_27,,
306,P5062,Innominado,,,5062,,,-33.970875161,-69.899497780,Vn San Jose_28,,
307,P5009,Innominado,,,5009,,,-33.984764917,-69.845051002,Vn San Jose_29,,
308,P4396,Innominado,,,4396,,,-33.977818601,-69.949778245,Vn San Jose_30,,
309,P4290,Innominado,,,4290,,,-33.983930368,-69.911443172,Vn San Jose_31,,
310,Gallardo,Punta,P4271,Cerro,4271,4250,,-33.934027778,-69.969027778,Vn San Jose_-,,
311,P4512,Cerro,,,,,,,,Vn San Jose_-,,
312,P4412,Cerro,,,,,,,,Vn San Jose_-,,
313,P4566,Cerro,,,,,,,,Vn San Jose_-,,
314,Cuba,Punta,,,4121,,,-33.860777778,-69.873361111,Vn San Jose_-,,
315,Unión,Cerro,,,3658,,,-33.755874463,-70.055055352,El Volcan_1,1,
316,Arenas,Cerro,,,4366,,,-33.757264097,-70.013942243,El Volcan_2,1,
317,Balcón,Punta,,,3516,,,-33.765874731,-70.035054626,El Volcan_3,1,
318,Canaletas,Punta,,,4055,,,-33.761984727,-70.097557617,El Volcan_4,1,
319,San Gabriel,Cerro,,,3125,,,-33.756704869,-70.212840955,El Volcan_5,1,
320,Pedro Rodríguez,Punta,,,3458,,,-33.763652154,-70.055611135,El Volcan_6,1,
321,Sin Nombre,Punta,,,3639,,,-33.783929026,-70.093669116,El Volcan_7,1,
322,Los Lunes,Cerro,,,3619,,,-33.784206413,-70.114225690,El Volcan_7B,1,
323,Rubillas Norte,Cerro,,,3503,,,-33.785318698,-70.050055884,El Volcan_8,1,
324,Rubillas Sur,Cerro,,,3427,,,-33.796429705,-70.050056178,El Volcan_9,1,
325,P3180,Innominado,,,3180,,,-33.793374407,-70.037555478,El Volcan_10,1,
326,Mirador del Rubillas,Cerro,,,3441,,,-33.790318719,-70.046166933,El Volcan_11,1,
327,Chacaya,Cerro,,,2839,,,-33.813095611,-70.081724848,El Volcan_12,1,
328,Gólgota,Punta,,,3501,,,-33.789207533,-70.050889358,El Volcan_13,1,
329,Ventanas,Punta,,,3144,,,-33.803652103,-70.036444585,El Volcan_14,1,
330,Zanzi,Punta,,,3250,,,-33.833929710,-70.029222800,El Volcan_15,1,
331,Catedral,Cerro,,,3838,,,-33.835318879,-70.012833144,El Volcan_16,1,
332,P3747,Innominado,,,3747,,,-33.840874449,-70.009221993,El Volcan_17,1,
333,Valdés,Cerro,,,3711,,,-33.841707504,-70.023667181,El Volcan_18,1,
334,Catedral Sur,Cerro,,,3799,,,-33.838096548,-70.017277878,El Volcan_19,1,
335,El Salto,Cerro,,,3520,,,-33.850038688,-70.135617387,El Volcan_20,1,
336,San Simon,Cerro,,,3580,,,-33.860038643,-70.132561952,El Volcan_21,1,
337,Retumbadero Norte,Cerro,,,3825,,,-33.864483958,-70.082837388,El Volcan_22,1,
338,Lagunas,Cerro,,,3785,,,-33.855596274,-70.022556385,El Volcan_23,1,
339,Corona,Cerro,,,4112,,,-33.882262242,-70.045891580,El Volcan_24,1,
340,Vega,Cerro,,,3955,,,-33.880039833,-70.057280975,El Volcan_25,1,
341,Retumbadero Alto,Cerro,,,3999,,,-33.874205863,-70.094504885,El Volcan_26,1,
342,Diente del Diablo,Cerro,,,3943,,,-33.886983421,-70.099505473,El Volcan_27,1,
343,Diablo,Cerro,,,4190,,,-33.902538848,-70.098116928,El Volcan_28,1,
344,P3987,Innominado,,,3987,,,-33.887540585,-70.012556737,El Volcan_29,1,
345,P4053,Innominado,,,4053,,,-33.899207065,-70.015890543,El Volcan_30,1,
346,P4105,Innominado,,,4105,,,-33.908928707,-70.042281001,El Volcan_31,1,
347,Carreño,Cerro,,,4198,,,-33.907540315,-70.016168559,El Volcan_32,1,
348,P4130,Innominado,,,4130,,,-33.920317379,-70.047281552,El Volcan_33,1,
349,Yesillo,Cerro,,,3616,,,-33.949760365,-70.110063231,El Volcan_34,1,
350,Extravio,Cerro,,,3911,,,-33.995036163,-70.191735150,El Volcan_35,1,
351,Piuquenes,Nevado,,,6019,,,-33.514769802,-69.835315933,Rio Yeso_1,1,2
352,Trono,Cerro,,,5477,,,-33.506158225,-69.865594978,Rio Yeso_2,1,
353,Bello,Cerro,,,5230,,,-33.519212411,-69.933098657,Rio Yeso_3,1,
354,Cuerno Blanco,Cerro,,,5038,,,-33.513378804,-69.951432751,Rio Yeso_4,1,
355,P5446,Innominado,,,5446,,,-33.510324919,-69.861428220,Rio Yeso_5,1,
356,P5928,Innominado,,,5928,,,-33.507269922,-69.832815614,Rio Yeso_6,1,2
357,P4620,Innominado,,,4620,,,-33.520600154,-69.995046204,Rio Yeso_7,1,
358,P4925,Innominado,,,4925,,,-33.526435168,-69.900319454,Rio Yeso_8,1,
359,Delgada,Aguja,,,4652,,,-33.531433497,-69.988935075,Rio Yeso_9,1,
360,Mirador del Yeso,Cerro,,,4537,,,-33.535323462,-69.927543252,Rio Yeso_10,1,
361,Hohf,Punta,,,4882,,,-33.530323512,-69.927543122,Rio Yeso_11,1,
362,P4812,Innominado,,,4812,,,-33.522268215,-69.918097995,Rio Yeso_12,1,
363,Yeguas Muertas,Cerro,,,4912,,,-33.526156248,-69.962822537,Rio Yeso_13,1,
364,Alto del Yeso,Cerro,,,5170,,,-33.536157215,-69.904486573,Rio Yeso_14,1,
365,Piramide,Cerro,,,5484,,,-33.543379952,-69.872262947,Rio Yeso_15,1,2
366,Aparejo,Cerro,Alemania,Punta,4794,,,-33.539488916,-69.991713193,Rio Yeso_16,1,
367,P4443,Innominado,Casa de la Bruja,Cerro,4443,,,-33.549489686,-69.944211106,Rio Yeso_17,1,
368,Universitaria,Punta,,,3927,,,-33.577266577,-69.977546820,Rio Yeso_18,1,
369,Cuerno Seco,Cerro,,,4020,,,-33.586989504,-69.933656014,Rio Yeso_19,1,
370,Mirador de Piuquenes,Cerro,,,4433,,,-33.607268145,-69.875598110,Rio Yeso_20,1,2
371,Quilpué,Cerro,,,4218,,,-33.618101265,-69.881154228,Rio Yeso_21,1,2
372,Rotario,Cerro,,,4083,,,-33.629490127,-69.876432072,Rio Yeso_22,1,2
373,P4034,Innominado,,,4034,,,-33.630601074,-69.884765844,Rio Yeso_23,1,
374,Puente Alto,Cerro,,,4239,,,-33.640601147,-69.875321198,Rio Yeso_25,1,2
375,Pastén,Cerro,,,4357,,,-33.646989902,-69.879210438,Rio Yeso_26,1,2
376,Marichiwew,Cerro,,,4539,,,-33.664487646,-69.992549850,Rio Yeso_27,1,
377,P5068,Innominado,,,5068,,,-33.686154338,-69.979494213,Rio Yeso_28,1,
378,Loma Larga - Cumbre Oeste,Cerro,,,5385,,,-33.686431850,-69.993939386,Rio Yeso_29,1,
379,Loma Larga - Cumbre Este,Cerro,Amarilla,Punta,5375,,,-33.686154231,-69.985327842,Rio Yeso_30,1,
380,Loma Larga - Cumbre Central,Cerro,Chile,Punta,5404,,,-33.686709719,-69.988383558,Rio Yeso_31,1,
381,P5399,Innominado,,,5399,,,-33.701156173,-69.871433703,Rio Yeso_32,1,
382,Marmolejo Norte,Cerro,,,5964,,,-33.716711679,-69.865322699,Rio Yeso_33,1,
383,Palomares,Nevado,Marmolejo Este,Cerro,5934,,,-33.714211954,-69.851710838,Rio Yeso_34,2,
384,Italia,Punta,,,4863,,,-33.717820337,-69.998107078,Rio Yeso_35,1,
385,Cortaderas,Cerro,,,5197,,,-33.703931587,-69.998662300,Rio Yeso_36,1,
386,P4260,Innominado,Venezuela,Punta,4260,,,-33.705876850,-69.952826752,Rio Yeso_37,1,
387,Freile,Cerro,,,4598,,,-33.731709225,-69.990607073,Rio Yeso_38,1,
388,Brasil,Punta,,,4594,,,-33.730875694,-70.001996505,Rio Yeso_39,1,
389,Marmolejo,Cerro,,,6108,,,-33.734489046,-69.878101570,Rio Yeso_40,1,
390,Escondido,Morro,,,4442,,,-33.741709083,-69.992829677,Rio Yeso_41,1,
391,Chile,Punta,,,4377,,,-33.742820244,-69.989496201,Rio Yeso_42,1,
392,Mohai,Cerro,,,4368,,,-33.744764761,-69.984773799,Rio Yeso_43,1,
393,Veleta,Punta,,,4305,,,-33.738931316,-69.994218553,Rio Yeso_44,1,
394,Pirámide,Cerro,,,4157,,,-33.532710917,-70.007324907,Embalse Yeso_1,1,
395,Tambillos,Cerro,,,4254,,,-33.531710114,-70.051715953,Embalse Yeso_2,1,
396,Alto de los Bronces,Cerro,,,4046,,,-33.544207906,-70.165055212,Embalse Yeso_3,1,
397,Alto de las Amarillas,Cerro,,,4143,,,-33.549485766,-70.157832774,Embalse Yeso_4,1,
398,Casa de Piedra - Cumbre Oeste,Cerro,,,4508,,,-33.543848772,-70.057716567,Embalse Yeso_5,1,
399,Casa de Piedra,Cerro,,,4542,,,-33.545598823,-70.053938656,Embalse Yeso_7,1,
400,Casa de Piedra - Cumbre Noreste,Cerro,,,4485,,,-33.542821127,-70.050882873,Embalse Yeso_8,1,
401,Pico de Loro,Cerro,,,4397,,,-33.545126791,-70.043965921,Embalse Yeso_10,1,
402,El Muro,Cerro,,,4364,,,-33.547793473,-70.041882558,Embalse Yeso_12,1,
403,Punta Aguila Azul,Cerro,,,3987,,,-33.541985908,-70.154221279,Embalse Yeso_13,1,
404,P4503,Innominado,,,4503,,,-33.545182134,-70.055772066,Embalse Yeso_14,1,
405,P4225,Innominado,,,4225,,,-33.553932936,-70.007269899,Embalse Yeso_15,1,
406,P3986,Innominado,,,3986,,,-33.555597606,-70.114775251,Embalse Yeso_16,1,
407,Punta Maccio,Cerro,,,4125,,,-33.554987995,-70.033465661,Embalse Yeso_16B,1,
408,P4571,Innominado,,,4571,,,-33.560626184,-70.068578662,Embalse Yeso_17,1,
409,Granito,Cerro,,,4097,,,-33.565875160,-70.121442519,Embalse Yeso_18,1,
410,Aguja Seleccion,Cerro,,,4083,,,-33.561571398,-70.025882128,Embalse Yeso_19,1,
411,Punta Ona,Cerro,,,3800,,,,,Embalse Yeso_19B,1,
412,Aguja Helada,Cerro,,,4655,,,-33.566431704,-70.067550984,Embalse Yeso_20,1,
413,P4127,Innominado,,,4127,,,-33.581707957,-70.141721705,Embalse Yeso_21,1,
414,Punta del Paraiso,Cerro,,,3976,,,-33.575235660,-70.149471917,Embalse Yeso_22,1,
415,Punta Observatorio,Cerro,,,4050,,,-33.597764539,-70.077357840,Embalse Yeso_23,1,
416,Echaurren,Cerro,,,4203,,,-33.591152143,-70.150889075,Embalse Yeso_24,1,
417,Punta Aya - (Dientes del Echaurren),Cerro,,,4028,,,-33.593096885,-70.133388263,Embalse Yeso_25,1,
418,Piuquencillo,Cerro,,,4047,,,-33.600595817,-70.187280009,Embalse Yeso_26,1,
419,Negro,Pico,,,4430,,,-33.594487059,-70.062829266,Embalse Yeso_27,1,
420,Andino,Punta,,,4240,,,-33.602820356,-70.060051567,Embalse Yeso_28,1,
421,Negra,Punta,,,4127,,,-33.616709111,-70.059774138,Embalse Yeso_29,1,
422,Mesón Alto,Cerro,,,5257,,,-33.681708896,-70.035885777,Embalse Yeso_30,1,
423,Gervasutti,Punta,,,5253,,,-33.684764461,-70.033941321,Embalse Yeso_31,1,
424,Reina,Cerro,,,4755,,,-33.673792510,-70.025329496,Embalse Yeso_32,1,
425,Ciervo,Cerro,,,4160,,,-33.695041492,-70.068943323,Embalse Yeso_33,1,
426,Saavedra,Punta,,,5190,,,-33.694208703,-70.039497395,Embalse Yeso_34,1,
427,Cacharro,Punta,,,4441,,,-33.706430728,-70.043942387,Embalse Yeso_35,1,
428,Peladeros,Cerro,,,3886,,,-33.690038851,-70.214783725,Embalse Yeso_36,1,
429,Dedo de Dama,Cerro,,,3780,,,-33.704761035,-70.208672703,Embalse Yeso_37,1,
430,Jorge San Martin,Cerro,,,4471,,,-33.713097223,-70.049220594,Embalse Yeso_38,1,
431,Yamakawa,Punta,Cielo Amarillo,Punta,4967,,,-33.709209176,-70.005607223,Embalse Yeso_39,1,
432,Morado,Cerro,,,4647,,,-33.729485661,-70.064777356,Embalse Yeso_40,1,
433,Morado Sur,Cerro,,,4490,,,-33.737263239,-70.071444561,Embalse Yeso_41,1,
434,San Lorenzo,Cerro,,,3220,,,-33.720872012,-70.207006377,Embalse Yeso_42,1,
435,Punta Carancho,Cerro,,,4108,,,-33.720597101,-70.051720915,Embalse Yeso_43,1,
436,Placas,Cerro,,,4672,,,-33.746430954,-70.009775081,Embalse Yeso_44,1,
437,Mirador del Morado,Cerro,,,3883,,,-33.746707630,-70.068944687,Embalse Yeso_45,1,
438,San Francisco,Cerro,,,4345,,,-33.747540592,-70.088945699,Embalse Yeso_46,1,
439,P3149,Innominado,,,3149,,,-33.510314187,-70.445623672,San Jose de Maipo_1,1,
440,Loma Las Vegas,Cerro,,,2608,,,-33.516982369,-70.360064095,San Jose de Maipo_2,1,
441,Las Minillas,Cerro,,,2483,,,-33.534202149,-70.482570565,San Jose de Maipo_3,1,
442,Manzanito,Cerro,,,2438,,,-33.538091899,-70.433957171,San Jose de Maipo_4,1,
443,La Tinaja,Cerro,,,2509,,,-33.591704988,-70.297285195,San Jose de Maipo_5,1,
444,Morro Bayo,Cerro,,,2655,,,-33.616427454,-70.270895657,San Jose de Maipo_6,1,
445,Morro Purgatorio,Cerro,,,2252,,,-33.624202039,-70.438681899,San Jose de Maipo_7,1,
446,Morro Doña Isidora,Cerro,,,2340,,,-33.642258320,-70.389791083,San Jose de Maipo_8,1,
447,Los Azules,Cerro,,,2436,,,-33.741700310,-70.466741951,San Jose de Maipo_9,1,
448,Sin Nombre,Cerro,,,2815,,,-33.686982228,-70.273953232,San Jose de Maipo_10,1,
449,Cruzada Las Hormigas,Cerro,,,2532,,,-33.686701325,-70.442572638,San Jose de Maipo_11,1,
450,La Chupalla,Cerro,,,2193,,,-33.734759474,-70.276454622,San Jose de Maipo_12,1,
451,Toro Seco,Cerro,,,2394,,,-33.749201498,-70.398683250,San Jose de Maipo_13,1,
452,Punta Horizonte,Cerro,,,2374,,,-33.750869142,-70.345347337,San Jose de Maipo_14,1,
453,Polleritas,Cerro,,,5447,,,-33.266437450,-69.916702411,Tupungato_1,,
454,Chimbote,Cerro,,,5493,,,-33.283936807,-69.942537476,Tupungato_2,,
455,Sierra Bella,Cerro,,,5275,,,-33.272549981,-69.835031879,Tupungato_3,,
456,Orientacion,Cerro,,,5020,,,-33.286717111,-69.801419473,Tupungato_4,,
457,Toscas,Cerro,,,5036,,,-33.288658718,-69.956982750,Tupungato_5,,
458,Gran Bizcocho (Cordon),Cerro,,,4576,,,-33.300049176,-69.864478480,Tupungato_6,,
459,Catedral,Cerro,,,5334,,,-33.312824653,-69.983651358,Tupungato_7,,
460,Ortega,Cerro,,,4561,,,-33.345324578,-69.970040417,Tupungato_8,,
461,Tupungato,Volcán,,,6570,,,-33.358661403,-69.771142047,Tupungato_10,,
462,Tupungatito,Volcán,,,5550,,,-33.390604710,-69.816145097,Tupungato_11,,
463,Punta Meier,Cerro,,,5908,,,-33.415882574,-69.797811513,Tupungato_12,,
464,P5382,Innominado,,,5382,,,-33.409215146,-69.843091350,Tupungato_13,,
465,Los Negros,Cerro,,,4520,,,-33.411158545,-69.899760871,Tupungato_14,,
466,Museo,Cerro,,,4196,,,-33.434490482,-69.963375728,Tupungato_15,,
467,Nevado sin Nombre,Cerro,,,5933,,,-33.423938054,-69.797811722,Tupungato_16,,
468,P5781,Innominado,,,5781,,,-33.428381900,-69.828091105,Tupungato_17,,
469,El Barco,Cerro,,,4547,,,-33.452547784,-69.858093215,Tupungato_18,,
470,P5984,Innominado,,,5984,,,-33.455048432,-69.821147012,Tupungato_20,,
471,Alto,Cerro,,,6148,,,-33.468381736,-69.815313739,Tupungato_19,,
472,Mesetas,Cerro,,,6030,,,-33.473381530,-69.823925405,Tupungato_22,,
473,P5838,Innominado,,,5838,,,-33.481714666,-69.830037033,Tupungato_21,,
474,P5868,Innominado,,,5868,,,-33.497270031,-69.832259767,Tupungato_24,,
475,Kobe,Cerro,,,5067,,,-33.501990073,-69.948932331,Tupungato_23,,
476,Punta Verde,Cerro,,,4735,,,-33.261987797,-70.204772032,Rio Olivares_1,1,
477,P4789,Innominado,,,4789,,,-33.282545387,-70.082266542,Rio Olivares_2,1,
478,Solari,Cerro,,,5325,,,-33.270324074,-70.038652970,Rio Olivares_3,1,
479,Roth,Cerro,,,5335,,,-33.274768247,-70.051431494,Rio Olivares_4,1,
480,Roth Antecumbre Oeste,Cerro,,,5018,,,-33.277267959,-70.065876709,Rio Olivares_5,1,
481,P5133,Innominado,,,5133,,,-33.276435345,-70.026985883,Rio Olivares_6,1,
482,Bismarck,Cerro,,,4650,,,-33.270598922,-70.199216422,Rio Olivares_7,1,
483,P4943,Innominado,,,4943,,,-33.302546489,-70.010874654,Rio Olivares_8,1,
484,P4692,Innominado,,,4692,,,-33.298934175,-70.078933472,Rio Olivares_9,1,
485,Pintor,Cerro,,,4180,,,-33.291431082,-70.252275128,Rio Olivares_12,1,
486,Cepo,Cerro,,,4309,,,-33.305598779,-70.187827890,Rio Olivares_13,1,
487,P4720,Innominado,,,4720,,,-33.319767353,-70.075878300,Rio Olivares_14,1,
488,P4384,Innominado,,,4384,,,-33.335045011,-70.074211944,Rio Olivares_15,1,
489,Morro Rabicano,Cerro,,,4897,,,-33.333657391,-70.005319634,Rio Olivares_18,1,
490,Lagruca,Cerro,,,4109,,,-33.320320948,-70.182550232,Rio Olivares_19,1,
491,Klatt,Cerro,,,4182,,,-33.330876423,-70.181439342,Rio Olivares_20,1,
492,P4391,Innominado,,,4391,,,-33.350600466,-70.070878853,Rio Olivares_21,1,
493,P4578,Innominado,,,4578,,,-33.360044568,-70.084768672,Rio Olivares_22,1,
494,Bávaro,Cerro,,,4085,,,-33.366153976,-70.174495467,Rio Olivares_25,1,
495,Laguna,Cerro,,,4120,,,-33.374764648,-70.193663303,Rio Olivares_26,1,
496,P3942,Innominado,,,3942,,,-33.378653947,-70.169217752,Rio Olivares_27,1,
497,Alto del Coironal (cumbre central),Cerro,Negro Siam,,4756,,,-33.375599866,-70.090047116,Rio Olivares_28,1,
498,Alto del Chacayal,Cerro,,,4528,,,-33.400321849,-70.089492171,Rio Olivares_29,1,
499,Capitán del Quempo,Cerro,,,4157,,,-33.390319869,-70.203108613,Rio Olivares_30,1,
500,Teniente del Quempo,Cerro,,,4156,,,-33.397542158,-70.195886226,Rio Olivares_31,1,
501,Sargento Este,Cerro,,,3792,,,-33.395875159,-70.214776002,Rio Olivares_31B,1,
502,Sargento Oeste,Cerro,,,3808,,,-33.399763959,-70.217554020,Rio Olivares_32,1,
503,P4056,Innominado,,,4056,,,-33.410319840,-70.193664230,Rio Olivares_33,1,
504,P4389,Innominado,,,4389,,,-33.415043926,-70.089770347,Rio Olivares_34,1,
505,P4265,Innominado,,,4265,,,-33.432266116,-70.081992632,Rio Olivares_35,1,
506,P4030,Innominado,,,4030,,,-33.421708667,-70.190886610,Rio Olivares_36,1,
507,P3897,Innominado,,,3897,,,-33.434208536,-70.191164730,Rio Olivares_37,1,
508,P3830,Innominado,,,3830,,,-33.442541868,-70.186998072,Rio Olivares_38,1,
509,Alto del Tofo (Cordon El Dique),Cerro,,,3960,,,-33.445043753,-70.082826346,Rio Olivares_39,1,
510,Manchón,Cerro,,,3720,,,-33.258930280,-70.313943980,Farellones_1,1,
511,Carpa,Cerro,,,2776,,,-33.254205270,-70.468118068,Farellones_2,1,
512,Conchalí,Cerro,,,2552,,,-33.266982706,-70.479785642,Farellones_3,1,
513,Canoitas,Cerro,,,2650,,,-33.296150790,-70.386726285,Farellones_4,1,
514,Parva,Cerro,,,4047,,,-33.301153077,-70.259220161,Farellones_5,1,
515,Falsa Parva,Cerro,,,3888,,,-33.306152885,-70.266998453,Farellones_6,1,
516,Boiniguita,Cerro,,,2220,,,-33.328650211,-70.400338919,Farellones_7,1,
517,del Medio,Cerro,,,2326,,,-33.326151292,-70.342836034,Farellones_8,1,
518,Loma de la Vaca,Cerro,,,2030,,,-33.341705112,-70.428396185,Farellones_9,1,
519,Colorado,Cerro,,,3339,,,-33.345596861,-70.270610766,Farellones_10,1,
520,Pochoco,Cerro,,,1804,,,-33.353649016,-70.451453186,Farellones_11,1,
521,Cebolla,Cerro,,,2470,,,-33.401706675,-70.310336410,Farellones_13,1,
522,Ñipa,Cerro,,,2347,,,-33.399482556,-70.414785918,Farellones_12,1,
523,Covarrubias,Cerro,,,2365,,,-33.427816381,-70.372284575,Farellones_14,1,
524,Provincia,Cerro,,,2750,,,-33.425870803,-70.435065384,Farellones_15,1,
525,del Tambor,Morro,,,2893,,,-33.452259553,-70.428121286,Farellones_16,1,
526,San Ramón,Cerro,,,3253,,,-33.485592337,-70.439233817,Farellones_17,1,
527,Abanico,Morro,,,2152,,,-33.487813729,-70.482847135,Farellones_18,1,
528,La Polvareda,Cerro,,,3738,,,-33.280875084,-70.281998533,Farellones_19,1,
529,P5083,Innominado,,,5083,,,-33.005605437,-69.985310235,Polleras_1,2,
530,P5215,Innominado,,,5215,,,,,Polleras_3,2,
531,P5300,Innominado,,,5300,,,,,Polleras_4,2,
532,P5160,Innominado,,,5160,,,-33.048383394,-69.952254140,Polleras_6,2,
533,P5082,Innominado,,,5082,,,-33.055605613,-69.948365242,Polleras_7,2,
534,P5286,Innominado,,,5286,,,-33.069494327,-69.950587926,Polleras_8,2,
535,P5172,Innominado,,,5172,,,-33.091716328,-69.950588493,Polleras_9,2,
536,P5306,Innominado,,,5306,,,-33.105327244,-69.953922344,Polleras_10,2,
537,P5040,Innominado,,,5040,,,-33.121716189,-69.941977725,Polleras_11,2,
538,Polleras - AC Norte 3,Cerro,,,4786,,,-33.205049639,-69.890588437,Polleras_20,2,
539,Polleras - AC Este 3,Cerro,,,4781,,,-33.236716360,-69.870032686,Polleras_21,2,
540,Polleras - AC Norte 2,Cerro,,,5330,,,-33.227549105,-69.907812094,Polleras_22,2,
541,Polleras - AC Oeste,Cerro,,,5458,,,-33.244770646,-69.935869469,Polleras_23,2,
542,Polleras - AC Este 1,Cerro,,,5375,,,-33.243104552,-69.905034576,Polleras_24,2,
543,Polleras - AC Este 2,Cerro,,,5136,,,-33.245326926,-69.895311934,Polleras_25,2,
544,Polleras,Cerro,,,5993,,,-33.243104330,-69.917257399,Polleras_26,1,2
545,Polleras - Cumbre Oeste,Cerro,,,5970,,,-33.245604225,-69.921702122,Polleras_27,1,2
546,Polleras - AC Norte 1,Cerro,,,5683,,,-33.237826622,-69.916146098,Polleras_28,2,
547,Mono Verde,Cerro,,,4524,,,-33.009493119,-70.050035732,Cordon Piuquenes_1,1,
548,Alto de los Leones,Cerro,,,5380,,,-33.008380471,-70.135595450,Cordon Piuquenes_3,1,
549,P5217,Innominado,,,5217,,,-33.013380627,-70.124206129,Cordon Piuquenes_4,1,
550,P5166,Innominado,,,5166,,,-33.015602971,-70.116150241,Cordon Piuquenes_5,1,
551,Cumbre Rascacielos,Cerro,,,4900,,,-33.017270314,-70.078092857,Cordon Piuquenes_6,1,
552,P4815,Innominado,,,4815,,,-33.028381782,-70.052258542,Cordon Piuquenes_7,1,2
553,Valentín Ugarte,Cerro,,,4666,,,-33.032271091,-70.026979621,Cordon Piuquenes_8,1,
554,Juncal - AC Norte,Nevado,,,5392,,,-33.029492368,-70.080593291,Cordon Piuquenes_9,1,2
555,Fugaz,Punta,,,4265,,,-33.022267983,-70.203932493,Cordon Piuquenes_10,1,
556,Juncal - Cumbre Sur,Nevado,,,5925,,,-33.051714107,-70.095039018,Cordon Piuquenes_11,1,2
557,Juncal - Cumbre Chilena,Nevado,,,5953,,,-33.051713991,-70.101428221,Cordon Piuquenes_12,1,
558,Columna,Cerro,de los Leones,Nevado,5660,,,-33.037547260,-70.113095091,Cordon Piuquenes_13,1,
559,Negro (del Juncal),Cerro,,,5295,,,-33.047270350,-70.059759393,Cordon Piuquenes_14,1,
560,Juncal,Nevado,,,5966,,,-33.043658803,-70.085871692,Cordon Piuquenes_15,1,2
561,Alto del Potrero Escondido,Cerro,,,4986,,,-33.055879375,-70.170042802,Cordon Piuquenes_17,1,
562,Alto del Potrero Escondido - Cumbre Este,Cerro,,,4810,,,-33.056435131,-70.158931162,Cordon Piuquenes_18,1,
563,Alto del Potrero Escondido - Cumbre Sur,Cerro,,,4682,,,-33.067545833,-70.175321140,Cordon Piuquenes_19,1,
564,Amistad,Punta,de la Amistad,Cerro,5210,,,-33.061992102,-70.077538421,Cordon Piuquenes_20,1,2
565,Juncal Chico,Cerro,,,5617,,,-33.070046948,-70.112540345,Cordon Piuquenes_21,1,
566,Juncal Chico - Cumbre Central,Cerro,,,5602,,,-33.073102483,-70.111707042,Cordon Piuquenes_22,1,
567,Lucía-Dinamarca,Cerro,del Barriga,Alto,4498,,,-33.070600924,-70.198933486,Cordon Piuquenes_23,1,
568,Policha,Punta,,,4718,,,-33.081157650,-70.128930324,Cordon Piuquenes_24,1,
569,Olivares,Nevado,,,5005,,,-33.097823560,-70.161154552,Cordon Piuquenes_25,1,
570,Asociación,Cerro,,,4775,,,-33.101156574,-70.177266537,Cordon Piuquenes_26,1,
571,El Paso,Cerro,,,4811,,,-33.088935353,-70.128930523,Cordon Piuquenes_27,1,
572,del Plomo,Nevado,,,6070,,,-33.103658567,-70.066150038,Cordon Piuquenes_28,1,2
573,El Hombro,Punta,,,4875,,,-33.092823872,-70.146709265,Cordon Piuquenes_29,1,
574,P4730,Innominado,,,4730,,,-33.093379583,-70.138097747,Cordon Piuquenes_30,1,
575,P4708,Innominado,,Patricia?,4708,,,-33.095601902,-70.131430816,Cordon Piuquenes_31,1,
576,Barriga,Nevado,,,4560,,,-33.101156382,-70.187822615,Cordon Piuquenes_32,1,
577,P5556,Innominado,del Plomo - Cumbre Sur,Nevado,5556,,,-33.116713796,-70.076706441,Cordon Piuquenes_33,1,2
578,Anec,Cerro,,,4907,,,-33.110322738,-70.199490082,Cordon Piuquenes_34,1,
579,Picarte,Cerro,,,5060,,,-33.112267977,-70.155043512,Cordon Piuquenes_35,1,
580,Dorado,Cerro,Picarte Norte,Cerro,4962,,,-33.106434751,-70.152543240,Cordon Piuquenes_36,1,
581,Federación,Cerro,Sierra Blanca,Nevado,4997,,,-33.122823548,-70.148098993,Cordon Piuquenes_37,1,
582,Bahamonde,Cerro,,,4911,,,-33.122822588,-70.200879362,Cordon Piuquenes_38,1,
583,sin Nombre,Punta,,,4822,,,-33.128933318,-70.218935964,Cordon Piuquenes_39,1,
584,Alto del Moradito,Cerro,,,4807,,,-33.134210965,-70.222825181,Cordon Piuquenes_40,1,
585,del Rincón,Nevado,Bologna,Cerro,5538,,,-33.131436238,-70.056983629,Cordon Piuquenes_41,1,2
586,Mirador del Olivares,Cerro,,,4416,,,-33.140600520,-70.182823383,Cordon Piuquenes_42,1,
587,Negro,Cerro,de la Copa,Cerro,4928,,,-33.139488459,-70.235603713,Cordon Piuquenes_43,1,
588,Risopatrón,Cerro,,,5720,,,-33.150602592,-70.063373325,Cordon Piuquenes_44,1,
589,Barentín,Cerro,,,4728,,,-33.150877636,-70.213658490,Cordon Piuquenes_45,1,
590,Iver,Punta,,,4723,,,-33.147544096,-70.226992388,Cordon Piuquenes_46,1,
591,Sheirap,Punta,Sherpa,Punta,4581,,,-33.155599530,-70.228937141,Cordon Piuquenes_47,1,
592,Leonor,Punta,,,4665,,,-33.158932801,-70.230881762,Cordon Piuquenes_48,1,
593,La Cuña,Punta,,,4582,,,-33.165599243,-70.239215673,Cordon Piuquenes_49,1,
594,Loma Rabona,Cerro,Divisorio,Cerro,3910,,,-33.160323453,-70.132821436,Cordon Piuquenes_50,1,
595,P5363,Innominado,,,5363,,,-33.156157769,-70.081429915,Cordon Piuquenes_51,1,
596,Tronco - AC Oeste,Cerro,,,5290,,,-33.178935490,-70.072263380,Cordon Piuquenes_52,1,
597,Amarilla,Punta,,,4565,,,-33.171988018,-70.241993754,Cordon Piuquenes_53,1,
598,Chávez,Cerro,,,4830,,,-33.184489053,-70.178379845,Cordon Piuquenes_54,1,
599,Altar,Cerro,,,5180,,,-33.185321204,-70.242549685,Cordon Piuquenes_55,1,
600,Tronco,Cerro,,,5567,,,-33.176157929,-70.061707229,Cordon Piuquenes_56,1,2
601,del Fierro,Morro,,,4642,,,-33.181990853,-70.080874992,Cordon Piuquenes_57,1,
602,P5130,Innominado,,,5130,,,-33.191713345,-70.060596465,Cordon Piuquenes_58,1,2
603,Osiecki,Cerro,,,5150,,,-33.201988362,-70.206715017,Cordon Piuquenes_59,1,
604,Fickenscher,Cerro,,,5350,,,-33.209765942,-70.213382215,Cordon Piuquenes_60,1,
605,Esmeralda Norte,Cerro,,,4566,,,-33.200322782,-70.147823203,Cordon Piuquenes_62,1,
606,Esmeralda Central,Cerro,,,4520,,,-33.206156226,-70.138934026,Cordon Piuquenes_63,1,
607,Esmeralda Sur,Cerro,,,4555,,,-33.214211685,-70.139489811,Cordon Piuquenes_64,1,
608,Littoria,Cerro,,,5352,,,-33.215599107,-70.219215982,Cordon Piuquenes_65,1,
609,P5070,Innominado,,,5070,,,-33.203935388,-70.064208067,Cordon Piuquenes_66,1,2
610,P5055,Innominado,,,5055,,,-33.215324261,-70.058374743,Cordon Piuquenes_67,1,2
611,Cincuentenario,Cerro,,,4987,,,-33.226435352,-70.053930370,Cordon Piuquenes_68,1,2
612,El Plomo,Cerro,,,5424,,,-33.236154548,-70.214494061,Cordon Piuquenes_69,1,
613,Reichert,Cerro,,,5286,,,-33.235324628,-70.027262617,Cordon Piuquenes_70,1,2
614,Parsifal,Punta,,,5370,,,-33.231709985,-70.223105479,Cordon Piuquenes_71,1,
615,Santiago,Punta,,,5083,,,-33.236154213,-70.232828301,Cordon Piuquenes_72,1,
616,Expedición,Punta,,,5000,,,-33.243099080,-70.205604915,Cordon Piuquenes_73,1,
617,de los Castaños,Morro,,,4220,,,-33.243099882,-70.161713869,Cordon Piuquenes_74,1,
618,Leonera,Cerro,Plomo Negro,Cerro,4954,,,-33.245876158,-70.242551250,Cordon Piuquenes_75,1,
619,Chuncho,Punta,,,5073,,,-33.245880069,-70.028096260,Cordon Piuquenes_76,1,2
620,Hermandad,Punta,,,4930,,,-33.238376207,-70.243940014,Cordon Piuquenes_77,1,
621,Tuquito,Cerro,,,3990,,,-33.019766595,-70.281714006,La Disputada_1,1,
622,P4041,Innominado,,,4041,,,-33.004210937,-70.295603177,La Disputada_2,1,
623,P4107,Innominado,,,4107,,,-33.016710651,-70.304492822,La Disputada_3,1,
624,Yaretas,Cerro,,,3539,,,-33.023930643,-70.423387707,La Disputada_4,1,
625,P4034,Innominado,,,4034,,,-33.051154545,-70.316160946,La Disputada_5,1,
626,Punta Flores,Cerro,,,4157,,,-33.054766231,-70.282548284,La Disputada_6,1,
627,P4144,Innominado,,,4144,,,-33.056987973,-70.307549565,La Disputada_7,1,
628,P4102,Innominado,,,4102,,,-33.062265736,-70.305605155,La Disputada_8,1,
629,Morro Cáceres,Cerro,,,2798,,,-33.064484943,-70.469502112,La Disputada_9,1,
630,San Emeterio,Cerro,,,4322,,,-33.068654693,-70.298382746,La Disputada_10,1,
631,P4120,Innominado,,,4120,,,-33.076154694,-70.294216065,La Disputada_11,1,
632,P4082,Innominado,,,4082,,,-33.085599060,-70.293105143,La Disputada_12,1,
633,Los Azules,Cerro,,,3643,,,-33.088097292,-70.388665442,La Disputada_13,1,
634,Del Plomo,Cerro,,,4025,,,-33.096709147,-70.343107876,La Disputada_14,1,
635,P4066,Innominado,,,4066,,,-33.088931526,-70.339218595,La Disputada_15,1,
636,Turquesa,Cerro,,,3905,,,-33.108931762,-70.315329061,La Disputada_16,1,
637,Ceatoleí,Cerro,,,4136,,,-33.118932001,-70.296717288,La Disputada_17,1,
638,P4003,Innominado,,,4003,,,-33.110321554,-70.264493268,La Disputada_18,1,
639,P4115,Innominado,,,4115,,,-33.134765172,-70.296717696,La Disputada_19,1,
640,Disputada,Cerro,,,4165,,,-33.128098635,-70.293106237,La Disputada_20,1,
641,Ortiga,Cerro,,,3563,,,-33.130597235,-70.368387766,La Disputada_21,1,
642,El Choclo,Cerro,,,3905,,,-33.132821213,-70.270883050,La Disputada_22,1,
643,El Plomo,Cerro,,,3535,,,-33.161708403,-70.348109797,La Disputada_23,1,
644,Piuquenes,Cerro,,,3403,,,-33.159762199,-70.445614517,La Disputada_24,1,
645,Punta Monolito,Cerro,,,4274,,,-33.166154432,-70.259216667,La Disputada_25,1,
646,Infiernillo,Cerro,,,4040,,,-33.149487518,-70.281717340,La Disputada_26,1,
647,del Cobre,Cerro,,,3820,,,-33.141986366,-70.348942669,La Disputada_27,1,
648,Dolores,Cerro,,,3760,,,-33.151709331,-70.302829552,La Disputada_28,1,
649,Fortuna,Cerro,,,4641,,,-33.176987273,-70.280051308,La Disputada_29,1,
650,P4474,Innominado,,,4474,,,-33.184487107,-70.285051747,La Disputada_30,1,
651,Los Angeles,Cerro,,,3623,,,-33.182262974,-70.390890203,La Disputada_31,1,
652,La Polcura,Cerro,,,3524,,,-33.171429677,-70.395056796,La Disputada_32,1,
653,Paloma,Cerro,,,4910,,,-33.180598575,-70.267550789,La Disputada_33,1,
654,San Francisco,Cerro,,,4270,,,-33.200875660,-70.294497073,La Disputada_34,1,
655,P3330,Innominado,,,3330,,,-33.197263514,-70.353110962,La Disputada_35,1,
656,P4164,Innominado,,,4164,,,-33.211986734,-70.290330496,La Disputada_36,1,
657,Arqueado de Barrera,Cerro,,,2898,,,-33.217538900,-70.472561783,La Disputada_37,1,
658,Altar Falso,Cerro,,,4549,,,-33.206709596,-70.258106550,La Disputada_38,1,
659,Tornamesa,Cerro,,,2408,,,-33.226984417,-70.408670012,La Disputada_39,1,
660,Los Piches,Cerro,,,4233,,,-33.223097733,-70.290330784,La Disputada_40,1,
661,P3873,Innominado,,,3873,,,-33.235597277,-70.308387543,La Disputada_41,1,
662,Alto Hotel,Cerro,,,3163,,,-33.226985318,-70.359500934,La Disputada_42,1,
663,Cortadera Chico,Cerro,,,3324,,,-33.239485100,-70.364501504,La Disputada_43,1,
664,Tolosa,Cerro,,,5353,,,-32.769495808,-70.031417632,Portillo_1,,
665,Tolosa Oeste,Cerro,,,5317,,,-32.766717841,-70.043362587,Portillo_2,,
666,C° Tres Hermanos Sur,Cerro,,,4274,,,-32.757827509,-70.128366521,Portillo_3,,
667,Pico Chorrillos,Cerro,,,4159,,,-32.775605540,-70.104754705,Portillo_3E,,
668,Pico Peñas Coloradas,Cerro,,,4211,,,-32.785049962,-70.101143656,Portillo_4B,,
669,Pico El Titan,Cerro,,,4254,,,-32.786438709,-70.108366265,Portillo_4C,,
670,Paramillos del Tolosa,Cerro,,,,,,-32.770050988,-70.052251996,Portillo_5,,
671,Parva del Inca,Cerro,,,4831,,,-32.758382313,-70.170035241,Portillo_9,,
672,Parva del Inca Norte,Cerro,,,4792,,,-32.757548962,-70.171701962,Portillo_10,,
673,Varela,Cerro,,,4093,,,-32.775881901,-70.183369665,Portillo_11,,
674,Del Cojo,Cerro,,,4335,4381,,-32.787583333,-70.199305555,Portillo_12,,
675,P4325,Innominado,,,4325,,,-32.789492336,-70.213371474,Portillo_13,,
676,C° Manantiales de Brito,Cerro,,,4456,,,-32.799491811,-70.236983990,Portillo_14,,
677,C° Barile,Cerro,,,4447,,,-32.800602940,-70.235317277,Portillo_15,,
678,C° Bastion,Cerro,,,4658,,,-32.797269999,-70.215593999,Portillo_16,,
679,C° Caracoles,Cerro,,,4465,,,-32.799216368,-70.107533216,Portillo_17,,
680,C° Mesetas Norte,Cerro,,,4048,,,-32.786715580,-70.158090923,Portillo_18,,
681,C° Mesetas Sur,Cerro,,,4095,,,-32.799215462,-70.157813455,Portillo_19,,
682,C° Aguja,Cerro,,,4607,,,-32.805325409,-70.218927706,Portillo_20,,
683,C° Glorieta,Cerro,,,4413,,,-32.804769504,-70.238928669,Portillo_21,,
684,C° Brujita,Cerro,,,4379,,,-32.810047156,-70.243095666,Portillo_22,,
685,C° Gloria,Cerro,de la Gloria,Peñón,4479,,,-32.817269340,-70.241151314,Portillo_23,,
686,P4323,Innominado,,,4323,,,-32.812269916,-70.211983093,Portillo_24,,
687,C° Juan Olmos,Cerro,,,4340,,,-32.816436600,-70.208927499,Portillo_25,,
688,C° Bermejo,Cerro,,,3873,,,-32.836160976,-70.078643846,Portillo_26,,
689,C° Ojos de Agua,Cerro,,,4222,,,-32.827826391,-70.152258347,Portillo_27,,
690,C° Santa Elena Norte,Cerro,,,4571,,,-32.836716981,-70.053087048,Portillo_28,,
691,C° Santa Elena,Cerro,,,4595,,,-32.839216942,-70.053920492,Portillo_29,,
692,C° Puntudito,Cerro,,,4157,,,-32.831995172,-70.032808166,Portillo_30,,
693,P4596,Innominado,,,4596,,,-32.847272423,-70.053920696,Portillo_31,,
694,P4640,Innominado,,,4640,,,-32.856438993,-70.054476505,Portillo_32,,
695,C° Navarro,Cerro,,,4671,,,-32.865050119,-70.048920900,Portillo_33,,
696,C° Navarro Sur,Cerro,,,4571,,,-32.868661258,-70.045309705,Portillo_34,,
697,C° Negro (del Gemelos),Cerro,,,4445,,,-32.853106806,-69.992251151,Portillo_35,,
698,C° Cabeza del Inca,Cerro,,,4193,,,-32.858382397,-70.110868205,Portillo_36,,
699,Cabeza del Inca Este,Cerro,,,4105,,,-32.861993787,-70.093367440,Portillo_37,,
700,Alto Mardones,Cerro,,,4098,,,-32.859771744,-70.084755852,Portillo_38,,
701,C° Gemelos,Cerro,,,5240,,,-32.881161911,-70.002252350,Portillo_39,,
702,C° Presenteseracae,Cerro,,,4952,,,-32.877828269,-70.020864289,Portillo_40,,
703,Torre Virgen Oeste,Cerro,,,5215,,,-32.883384130,-70.001141242,Portillo_41,,
704,Torre Virgen Este,Cerro,,,5200,,,-32.885050818,-69.999196739,Portillo_42,,
705,Pico Bonito,Cerro,,,4994,,,-32.872828853,-69.991140485,Portillo_43,,
706,Portezuelo Gemelos,Cerro,,,4328,,,-32.901161941,-69.989752243,Portillo_45,,
707,Gemelo Oeste,Cerro,,,5122,,,-32.889495285,-69.995307780,Portillo_46,,
708,Gemelo Este,Cerro,,,5117,,,-32.891161969,-69.993641071,Portillo_47,,
709,C° Punton Amarillo,Cerro,,,4159,,,-32.896716383,-70.053644153,Portillo_48,,
710,P4296,Innominado,,,4296,,,,,Portillo_48A,,
711,P4065,Innominado,,,4065,,,-32.898660889,-70.049477328,Portillo_48B,,
712,Doña Paula,Cerro,,,3945,,,-32.906160655,-70.058366844,Portillo_48C,,
713,C° Hornitos,Cerro,,,3625,,,-32.910327073,-70.069478605,Portillo_48D,,
714,P3669,Innominado,,,3669,,,,,Portillo_48E,,
715,Alto de la Posada,Cerro,,,4260,,,-32.890603151,-70.174483246,Portillo_49,,
716,Punta Desconocida,Cerro,,,4360,,,-32.896436358,-70.178650268,Portillo_50,,
717,C° Chorrillo,Cerro,,,4082,,,-32.912270114,-70.146426873,Portillo_51,,
718,C° Humberto Barrera,Cerro,,,4569,,,-32.908106293,-69.990863583,Portillo_52,,
719,C° EMA,Cerro,,,4328,,,-32.911436159,-70.181428565,Portillo_53,,
720,C° Becker,Cerro,,,4448,,,-32.920046908,-70.196707301,Portillo_54,,
721,C° Maite,Cerro,,,4438,,,-32.917269150,-70.196985024,Portillo_55,,
722,C° WIM,Cerro,,,4352,,,-32.919213737,-70.187817965,Portillo_56,,
723,C° Yeso,Cerro,,,4192,,,-32.926716599,-70.025310195,Portillo_58,,
724,C° Level,Cerro,,,4432,,,-32.919491630,-70.181428770,Portillo_59,,
725,C° Celsa,Cerro,,,3935,,,-32.936159155,-70.125037543,Portillo_60,,
726,Rafael Saavedra,Cerro,,,4410,,,-32.925047220,-70.176706450,Portillo_62,,
727,Gimnastico,Cerro,,,4275,,,-32.925602921,-70.168094933,Portillo_63,,
728,Atalaya,Cerro,,,4100,,,-32.923936187,-70.173095135,Portillo_64,,
729,Rabo de la Mona,Cerro,,,4293,,,-32.928936374,-70.160039073,Portillo_65,,
730,Halcon Alto,Cerro,,,4493,,,-32.932825280,-70.156427885,Portillo_66,,
731,P4456,Innominado,,,4456,,,-32.933658632,-70.155316742,Portillo_67,,
732,Gustavo,Cerro,,,4792,,,-32.923661440,-70.005309136,Portillo_68,,
733,P4714,Innominado,,,4714,,,-32.934494674,-70.004753824,Portillo_69,,
734,P4178,Innominado,,,4178,,,-32.921992178,-70.149760613,Portillo_70,,
735,P4295,Innominado,,,4295,,,-32.924769001,-70.201152089,Portillo_71,,
736,P5089,Innominado,,,5089,,,-32.945605705,-70.003087354,Portillo_72,,
737,Vigia,Cerro,,,4205,,,-32.949771176,-70.067257277,Portillo_73,,
738,P4365,Innominado,,,4365,,,-32.941436371,-70.153372395,Portillo_74,,
739,CAChV,Cerro,,,4493,,,-32.944491931,-70.151150144,Portillo_75,,
740,P4437,Innominado,,,4437,,,-32.946714360,-70.138371794,Portillo_76,,
741,Punta Barraquer,Cerro,,,4210,,,-32.938658181,-70.177540177,Portillo_77,,
742,Punta de Cuchillo,Cerro,,,4349,,,-32.951160544,-70.040033757,Portillo_78,,
743,Parque Andino,Cerro,,,4548,,,-32.966715504,-70.064201998,Portillo_79,,
744,Mono Negro,Cerro,,,4826,,,-32.964493722,-70.041145261,Portillo_80,,
745,Mono Blanco,Cerro,,,4772,,,-32.968660326,-70.042534325,Portillo_81,,
746,Alto del Río Blanco,Cerro,,,5228,,,-32.953661081,-70.008921184,Portillo_82,,
747,León Blanco,Cerro,,,5188,,,-32.961716346,-70.020310838,Portillo_83,,
748,Espinazo del Diablo,Cerro,,,3964,,,-32.957823926,-70.217542623,Portillo_84,,
749,Punta Perdida,Cerro,,,4047,,,-32.967269199,-70.166984829,Portillo_85,,
750,Codo Flojo,Cerro,,,3680,,,-32.971991125,-70.180596726,Portillo_85B,,
751,Arriero Chico,Cerro,,,4224,,,-32.954215527,-70.069757513,Portillo_86,,
752,Yeguas Heladas Norte,Cerro,,,4712,,,-32.966714052,-70.144483713,Portillo_87,,
753,Yeguas Heladas,Cerro,,,4771,,,-32.970880681,-70.144483819,Portillo_88,,
754,Yeguas Heladas Sur,Cerro,,,4770,,,-32.979769523,-70.142261717,Portillo_89,,
755,León Negro,Cerro,,,5176,,,-32.970882790,-70.027811439,Portillo_90,,
756,Central,Cerro,,,5247,,,-32.972550091,-69.991976382,Portillo_91,,
757,Don Juan,Cerro,,,5193,,,-32.972827959,-69.986420566,Portillo_92,,
758,Expedicion,Cerro,,,5219,,,-32.976439133,-69.981420413,Portillo_93,,
759,Philippe,Cerro,,,5225,,,-32.979772486,-69.978364787,Portillo_94,,
760,Marisco,Cerro,,,4480,,,-32.976993399,-70.052257233,Portillo_95,,
761,P4835,Innominado,,,4835,,,-32.971993719,-70.037256370,Portillo_96,,
762,P4810,Innominado,,,4810,,,-32.975326996,-70.038367620,Portillo_97,,
763,Punta Valeria,Cerro,,,4770,,,-32.983382472,-70.038645618,Portillo_98,,
764,Aguja Nacimiento Noroeste,Cerro,,,3796,,,-32.983103559,-70.101426470,Portillo_99,,
765,Aguja Nacimiento,Cerro,,,4010,,,-32.992270300,-70.092537378,Portillo_100,,
766,Doris Norte,Cerro,,,5181,,,-32.987272372,-69.980587307,Portillo_101,,
767,Centro Excursionista de Valencia,Cerro,,,5198,,,-32.992827802,-69.984198736,Portillo_102,,
768,Doris,Cerro,,,5241,,,-32.996716599,-69.987254544,Portillo_103,,
769,Los Cascajales,Cerro,,,3410,,,-32.760600624,-70.385323580,Rio Blanco_1,,
770,El Bolson,Cerro,,,2839,,,-32.768657049,-70.333099009,Rio Blanco_2,,
771,Los Pingos,Cerro,,,3030,,,-32.790600829,-70.357545207,Rio Blanco_3,,
772,Mocoen,Cerro,,,2693,,,-32.799209895,-70.465606239,Rio Blanco_4,,
773,Los Escalones,Cerro,,,3558,,,-32.797273317,-70.031418332,Rio Blanco_5,,
774,La Matancilla,Cerro,,,3540,,,-32.850323593,-70.294765881,Rio Blanco_6,,
775,Las Tinajas,Cerro,,,3137,,,-32.879211537,-70.331157282,Rio Blanco_7,,
776,Mina de Carbon,Cerro,,,3412,,,-32.875323003,-70.313656329,Rio Blanco_8,,
777,La Bandera,Cerro,,,2636,,,-32.883655580,-70.351158371,Rio Blanco_9,,
778,Muela del Diablo,Cerro,,,2960,,,-32.886989703,-70.305600672,Rio Blanco_10,,
779,Negro,Cerro,,,2348,,,-32.911430607,-70.487276828,Rio Blanco_11,,
780,La Torre,Cerro,,,2760,,,-32.930043280,-70.391161507,Rio Blanco_12,,
781,Nido de Condor,Cerro,,,2352,,,-32.927544854,-70.305879500,Rio Blanco_13,,
782,El Pelado,Cerro,,,3361,,,-32.947820478,-70.412829690,Rio Blanco_14,,
783,del Diablo,Cerro,,,2982,,,-32.967821168,-70.363938925,Rio Blanco_15,,
784,Los Azules de Vilcuya,Cerro,,,3446,,,-32.965319908,-70.434497855,Rio Blanco_16,,
785,Potrero Alto,Cerro,,,3827,,,-32.982544271,-70.307825450,Rio Blanco_17,,
786,Alto del Buitre,Cerro,,,3719,,,-32.995320347,-70.393941095,Rio Blanco_18,,
787,Laguna del Chano,Cerro,,,3620,,,-32.995044293,-70.299769816,Rio Blanco_19,,
788,Nevado de Leiva,Cerro,,,4653,,,-32.516718420,-70.146972497,Rio Leones_1,,
789,Cerro Bonete,Cerro,,,5261,,,-32.524497787,-70.053912602,Rio Leones_2,,
790,P4921,Innominado,,,4921,,,-32.520053718,-70.035578257,Rio Leones_3,,
791,Cerro La Mano,Cerro,,,5426,,,-32.530887384,-70.010855099,Rio Leones_4,,
792,Cerro Monjas,Cerro,,,4506,,,-32.536717459,-70.189752861,Rio Leones_5,,
793,Cerro Techado,Cerro,,,4452,,,-32.530051446,-70.157251111,Rio Leones_6,,
794,Cerro Reichert,Cerro,,,5150,,,-32.541998243,-70.018911329,Rio Leones_7,,
795,Cerro Cupula de Guessfeldt,Cerro,,,5350,,,-32.561164499,-70.031690200,Rio Leones_8,,
796,P4898,Innominado,,,4898,,,-32.556440666,-70.124472391,Rio Leones_9,,
797,Cerro Zurbriggen,Cerro,,,5322,,,-32.573108794,-70.033357249,Rio Leones_10,,
798,Cerro Link,Cerro,,,5100,,,-32.579497959,-70.014467595,Rio Leones_11,,
799,Cerro Piloto,Cerro,,,5064,,,-32.577828865,-70.150863102,Rio Leones_12,,
800,Cerro Alma Blanca,Cerro,,,5175,,,-32.575329322,-70.126695191,Rio Leones_14,,
801,Pico Brasil,Cerro,,,5100,,,-32.576440551,-70.120028233,Rio Leones_15,,
802,Cerro del Portezuelo del Norte,Cerro,,,5016,,,-32.594218531,-70.098638743,Rio Leones_17,,
803,Cerro Mar,Cerro,,,4890,,,-32.591995232,-70.160030573,Rio Leones_18,,
804,Cerro Gino Pertile,Cerro,,,4852,,,-32.602828392,-70.163642130,Rio Leones_20,,
805,Cerro del Avion,Cerro,,,4530,,,-32.630606030,-70.156420254,Rio Leones_22,,
806,Cerro Tordillo,Cerro,,,4670,,,-32.593105275,-70.218922362,Rio Leones_29,,
807,Cerro Falso Tordillo,Cerro,,,4583,,,-32.599215926,-70.241145818,Rio Leones_30,,
808,P4487,Innominado,,,4487,,,-32.609493955,-70.221700678,Rio Leones_31,,
809,P4866,Innominado,,,4866,,,-32.607828308,-70.165586790,Rio Leones_32,,
810,Punta Consuelo,Cerro,,,5171,,,-32.607830404,-70.048636641,Rio Leones_33,,
811,Cerro Fitz Gerald,Cerro,,,5357,,,-32.617275323,-70.017246453,Rio Leones_34,,
812,Cerro Ameghino,Cerro,,,5883,,,-32.620053643,-69.985578304,Rio Leones_35,,
813,Cerro Horcones,Cerro,,,5432,,,-32.621718447,-70.088361149,Rio Leones_36,,
814,Cerro Pan de Azucar,Cerro,,,5277,,,-32.623384603,-70.116140327,Rio Leones_37,,
815,Punta Hartmut,Cerro,,,5408,,,-32.621440834,-70.079749611,Rio Leones_39,,
816,Cerro Cuerno,Cerro,,,5510,,,-32.624774435,-70.062804427,Rio Leones_40,,
817,Cerro Punton de Mancilla,Cerro,,,4610,,,-32.631994572,-70.175032307,Rio Leones_41,,
818,Cerro Potrero Escondido,Cerro,,,3955,,,-32.636716247,-70.202811560,Rio Leones_42,,
819,Cerro Capucha Blanca,Cerro,,,4413,,,-32.643661019,-70.181144007,Rio Leones_43,,
820,Cerro Don Damasio,Cerro,,,4521,,,-32.642828215,-70.151698100,Rio Leones_44,,
821,Cerro Catedral,Cerro,,,5308,,,-32.646440506,-70.084472688,Rio Leones_45,,
822,Morro del Catedral,Cerro,,,5041,,,-32.648385102,-70.074750041,Rio Leones_46,,
823,Cerro Manso,Cerro,,,5557,,,-32.640885816,-70.038914773,Rio Leones_47,,
824,Cerro Aconcagua,Cerro,,,6959,,,-32.656719445,-70.013636153,Rio Leones_49,,
825,Cerro Aconcagua Cumbre Sur,Cerro,,,6930,,,-32.663385921,-70.020858893,Rio Leones_50,,
826,Cerro Bonete (del Sur),Cerro,,,5077,,,-32.658940315,-70.088362081,Rio Leones_51,,
827,Punta Walter Schiller,Cerro,,,4930,,,-32.659773786,-70.080028365,Rio Leones_52,,
828,Cerro Albino,Cerro,,,4254,,,-32.655605337,-70.181422101,Rio Leones_54,,
829,Cerro Riscado,Cerro,,,4437,,,-32.654772594,-70.149198277,Rio Leones_55,,
830,Cerro Molina,Cerro,,,4263,,,-32.663105163,-70.186978110,Rio Leones_56,,
831,Cerro Tres Valles,Cerro,,,5006,,,-32.687551011,-70.095863165,Rio Leones_58,,
832,Cerro Piramidal,Cerro,,,5700,,,-32.687274474,-70.026693106,Rio Leones_59,,
833,Mirador,Cerro,,,5511,,,-32.701719182,-70.003914584,Rio Leones_60,,
834,Cerro Loma Amarilla,Cerro,,,3805,,,-32.686160172,-70.205035131,Rio Leones_61,,
835,Cerro Los Toldos,Cerro,,,3970,,,-32.687827181,-70.184756403,Rio Leones_62,,
836,Cerro Dedos (Nuevo),Cerro,,,5026,,,-32.688940231,-70.076695593,Rio Leones_63,,
837,Morro Trigo,Cerro,,,3427,,,-32.712826796,-70.192535192,Rio Leones_64,,
838,P4587,Innominado,,,4587,,,-32.712549863,-70.146144030,Rio Leones_65,,
839,Morro Promontorio,Cerro,,,4917,,,-32.717552617,-69.990025411,Rio Leones_66,,
840,Nevado Matienzo,Cerro,,,5044,,,-32.711161980,-70.090863514,Rio Leones_67,,
841,Cerro Dedos (Original),Cerro,,,5044,,,-32.723106747,-70.066140385,Rio Leones_69,,
842,Cerro Guardian del Portillo,Cerro,,,4532,,,-32.728382988,-70.148922344,Rio Leones_70,,
843,Cerro Tres Hermanos Norte,Cerro,,,4751,,,-32.732549812,-70.138088579,Rio Leones_71,,
844,Cerro Tres Hermanos Central,Cerro,,,4595,,,-32.743660893,-70.133644202,Rio Leones_72,,
845,P4491,Innominado,,,4491,,,-32.743660308,-70.166145790,Rio Leones_73,,
846,Cerro Mexico,Cerro,,,5158,,,-32.746717966,-70.047251164,Rio Leones_74,,
847,Sin Nombre,Cerro,,,3773,,,-32.521159665,-70.323370085,Rio Colorado_1,,
848,Sin Nombre,Cerro,,,3835,,,-32.533937170,-70.331704140,Rio Colorado_2,,
849,Mancilla,Cerro,,,4057,,,-32.563382538,-70.263923810,Rio Colorado_3,,
850,La Gringa,Cerro,,,3970,,,-32.562548987,-70.276702181,Rio Colorado_4,,
851,Llaretal Norte,Cerro,,,3428,,,-32.568378529,-70.483934630,Rio Colorado_5,,
852,Llaretal Sur,Cerro,,,3370,,,-32.581711732,-70.483657172,Rio Colorado_6,,
853,Cruz del Padre Norte,Cerro,,,3805,,,-32.559214466,-70.344205381,Rio Colorado_7,,
854,Cruz del Padre Centro,Cerro,,,3807,,,-32.571992011,-70.350317119,Rio Colorado_8,,
855,Cruz del Padre Sur,Cerro,,,3754,,,-32.590880405,-70.367540651,Rio Colorado_9,,
856,Molina,Cerro,,,3607,,,-32.579490601,-70.424487573,Rio Colorado_10,,
857,Bocon,Cerro,,,4071,,,-32.628104148,-70.262536475,Rio Colorado_11,,
858,El Padre,Cerro,,,4085,,,-32.623380019,-70.371152754,Rio Colorado_12,,
859,Sin Nombre,Cerro,,,3742,,,-32.626711817,-70.454212426,Rio Colorado_13,,
860,Sin Nombre,Cerro,,,3968,,,-32.649490926,-70.368097703,Rio Colorado_14,,
861,Morro La Laguna,Cerro,,,3780,,,-32.656989332,-70.452268655,Rio Colorado_15,,
862,Llaretas,Cerro,,,4015,,,-32.659770572,-70.258925985,Rio Colorado_16,,
863,Alto del Cobre,Cerro,,,3632,,,-32.676988842,-70.468381054,Rio Colorado_17,,
864,Sin Nombre,Cerro,,,3855,,,-32.668935284,-70.362542373,Rio Colorado_18,,
865,Sin Nombre,Cerro,,,3751,,,-32.685046109,-70.369487557,Rio Colorado_19,,
866,Corral de Piedra,Cerro,,,3493,,,-32.693655643,-70.451991789,Rio Colorado_20,,
867,Sin Nombre,Cerro,,,3778,,,-32.679214670,-70.267260211,Rio Colorado_21,,
868,Sin Nombre,Cerro,,,3682,,,-32.700047835,-70.265593984,Rio Colorado_22,,
869,El Azufre,Cerro,,,3344,,,-32.715603027,-70.276983822,Rio Colorado_23,,
870,Piedras Negras,Cerro,,,3776,,,-32.722267921,-70.371710826,Rio Colorado_24,,
871,Alto de las Minas,Cerro,,,3622,,,-32.748378731,-70.373933825,Rio Colorado_25,,
872,Morro El Paico,Cerro,,,2330,,,-32.725599861,-70.446714561,Rio Colorado_26,,
873,La Torre,Cerro,,,2831,,,-32.740602564,-70.288929486,Rio Colorado_27,,
874,Alto de la Mamá,Cerro,,,4867,,,-34.254757126,-70.115905065,Paso Las Leñas_1,,
875,Punta Mistral,Cerro,,,4641,,,-34.268368122,-70.114516475,Paso Las Leñas_2,,
876,Alto de la Engorda,Cerro,,,4072,,,-34.257533358,-70.197020283,Paso Las Leñas_3,,
877,Picos del Barroso,Cerro,,,5174,,,-34.286147231,-70.033679603,Paso Las Leñas_4,,
878,Picos del Barroso - Cumbre Chilena,Cerro,,,5135,,,-34.279758074,-70.051458096,Paso Las Leñas_5,,
879,Picos del Barroso - Cumbre Argentina,Cerro,,,5165,,,-34.285036646,-70.006178203,Paso Las Leñas_6,,
880,Picos del Barroso - Cumbre Oeste,Cerro,,,5113,,,-34.284480038,-70.062569887,Paso Las Leñas_7,,
881,Corona de Don Manuel,Cerro,,,4493,,,-34.281145239,-70.142851572,Paso Las Leñas_8,,
882,Punta de Don Manuel Este,Cerro,,,4380,,,-34.281700929,-70.135073420,Paso Las Leñas_9,,
883,Punta de Don Manuel Sur,Cerro,,,4225,,,-34.294478535,-70.137296098,Paso Las Leñas_10,,
884,P4872,Innominado,,,4872,,,-34.292813209,-70.066459197,Paso Las Leñas_11,,
885,P4130,Innominado,,,4130,,,-34.288644146,-70.197021129,Paso Las Leñas_12,,
886,Aguja,Cerro,,,4612,,,-34.304201940,-70.068681837,Paso Las Leñas_13,,
887,P4595,Innominado,,,4595,,,-34.314479599,-70.069515488,Paso Las Leñas_14,,
888,P4153,Innominado,,,4153,,,-34.337256561,-70.100628767,Paso Las Leñas_15,,
889,Paja Grande,Cerro,,,4446,,,-34.373646496,-70.024792649,Paso Las Leñas_17,,
890,Cruceros,Cerro,,,3748,,,-34.427533312,-70.105631481,Paso Las Leñas_18,,
891,Morro del Atravieso,Cerro,,,4590,,,-34.449200682,-70.055907374,Paso Las Leñas_19,,
892,Kiñewen,Cerro,,,4120,,,-34.465866746,-70.078964541,Paso Las Leñas_20,,
893,Bayo,Cerro,,,4430,,,-34.475310409,-70.115077711,Paso Las Leñas_21,,
894,Aguja Rucaray,Cerro,,,4103,,,-34.269479667,-70.090626427,Paso Las Leñas_22,,
895,Mirador de la Caleria,Cerro,,,4034,,,-34.270313056,-70.087015159,Paso Las Leñas_23,,
896,P4237,Innominado,,,4237,,,-34.271979881,-70.077848088,Paso Las Leñas_24,,
897,P3511,Innominado,,,3511,,,-34.383642721,-70.220358223,Paso Las Leñas_25,,
898,Fragüita,Cerro,,,3856,,,-34.386143254,-70.190634583,Paso Las Leñas_26,,
899,Gato Negro,Cerro,,,3767,,,-34.300587560,-70.245079403,Paso Las Leñas_27,,
900,P3935,Innominado,,,3935,,,-34.296698924,-70.233689841,Paso Las Leñas_28,,
901,P3992,Innominado,,,3992,,,-34.287532787,-70.210910679,Paso Las Leñas_29,,
902,Socavones,Cerro,,,3788,,,-34.431419480,-70.248138685,Paso Las Leñas_30,,
903,Placilla,Cerro,,,3996,,,-34.396422248,-70.120353594,Paso Las Leñas_31,,
904,P4116,Innominado,,,4116,,,-34.261144769,-70.178963933,Paso Las Leñas_32,,
905,P4013,Innominado,,,4013,,,-34.264200553,-70.164796642,Paso Las Leñas_33,,
906,P4050,Innominado,,,4050,,,-34.271700673,-70.154240761,Paso Las Leñas_34,,
907,Alto de Piuquenes,Cerro,,,4600,,,,,,1,
908,Gastón,Cerro,,,3689,,,-33.598611111,-69.928611111,,1,
909,Octogésimo,Cerro,,,4930,,,-33.685416667,-69.883305556,,1,2
910,Picoyo,Punta,,,4461,,,-33.664166667,-69.978666667,,1,
911,Marmolejo - Cumbre Carioca,Cerro,,,,,,,,,,
912,Panimávida,Cerro,,,3431,3443,GPS,-33.617888889,-69.938888889,,1,
913,Pico de Loro,Cerro,,,4183,,,-32.828995556,-70.202969444,Portillo_104,,
914,Alto del Peñón,Cerro,,,3882,,,-32.821194444,-70.248111111,Portillo_105,,
915,Maitencito,Cerro,,,3638,,,-32.866438889,-70.236647222,Portillo_106,,
916,De la Iglesia,Cerro,,,4233,,,-32.801152778,-70.098336111,Portillo_107,,
917,Ancestral,Pico,,,4310,,,-32.779275000,-70.111572222,Portillo_108,,
918,Gótico,Pico,,,4290,,,-32.793925000,-70.107308333,Portillo_109,,
919,ARA San Juan,Pico,,,4125,,,-32.773277778,-70.104888889,Portillo_110,,
920,Peñas Amarillas,Cerro,,,4252,,,-32.766941667,-70.115277778,Portillo_111,,
921,Peñascoso,Cerro,,,4147,,,-32.763777778,-70.121027778,Portillo_112,,
922,Mirador del Tolosa,Cerro,,,4095,,,-32.791833333,-70.056638889,Portillo_113,,
923,Las Lajas,Cerro,,,3151,,,-32.921238889,-70.242972222,Portillo_114,,
924,Yesero,Cerro,,,3763,,,-32.83406111,-70.00795278,Portillo,,
925,Negro del Inca,Cerro,,,4611,,,-32.86277778,-70.01055556,Portillo,,
926,Morro Overo ,Cerro,,,4611,,,-32.86388889,-70.04666667,Portillo,,
927,Negro,Cerro,,,,,,,,Portillo,,
928,Santa Elenita,Cerro,,,,,,,,Portillo,,
929,Puntilla II del Peñon,Cerro,,,,,,,,Portillo,,
930,Diente Amankay,Punta,,,,,,,,,,
931,Zoológico,Cerro,,,,,,,,,,
932,Cola de Mono,Cerro,,,,,,,,,,
933,Campamento,Punta,,,,,,,,,1,
934,Aneki,Punta,,,3946,,,-33.942321,-69.980684,,,
935,El Refugio,Cerro,,,2117,,,-32.91388,-70.28338,,,
936,La Julia,Cerro,,,2138,,,-32.91515,-70.271,,,
937,Alto del Puente,Cerro,,,2434,,,-32.89664,-70.33972,,,
938,Los Gauchos,Cerro,,,2753,,,-32.78709,-70.40726,,,
939,Chincolito,Cerro,,,2185,,,-32.89646,-70.41774,,,